; Time to print!!!!!
; GCode created with FullControl - tell us what you're printing!
; info@fullcontrol.xyz or tag FullControlXYZ on Twitter/Instagram/LinkedIn/Reddit/TikTok
M83 ; relative extrusion
M140 S60 ; set bed temp and continue
M104 S210 ; set hotend temp and continue
M190 S60 ; set bed temp and wait
M109 S210  ; set hotend temp and wait
M106 S255 ; set fan speed
G0 F3000 X6.57598 Y6.64335 Z0.2
G0 X8.009809 Y6.324881
G0 X9.575983 Y6.21244
G0 X11.266153 Y5.889343
G0 X13.307075 Y5.7806
G0 X14.986404 Y5.454814
G0 X16.845353 Y5.335792
G0 X17.986169 Y5.043698
G0 X19.282604 Y4.899529
G0 X20.177972 Y4.628881
G0 X21.425605 Y4.41935
G0 X23.973144 Y3.715573
G0 X25.126299 Y3.528111
G0 X25.516954 Y3.352144
G0 X25.824501 Y3.053517
G0 X25.498059 Y2.946333
G0 X24.610753 Y2.872925
G0 X20.51611 Y2.838695
G0 X17.024573 Y3.196864
G0 X14.289267 Y3.285095
G0 X11.096998 Y3.638295
G0 X8.855598 Y3.741302
G0 X6.880748 Y4.271411
G0 X5.541836 Y5.002263
G0 X5.115686 Y5.418942
G0 X4.944241 Y5.708272
G0 X4.89963 Y5.992165
G0 X5.138623 Y6.463337
G0 X5.674308 Y6.649823
G0 X6.57598 Y6.64335
G0 F3000 X16.692951 Y11.83815
G1 F1000 X18.702344 Y11.361152 E0.06869
G1 X22.274897 Y10.079627 E0.126237
G1 X24.237052 Y9.14356 E0.072308
G1 X24.694949 Y8.744285 E0.020206
G1 X24.746384 Y8.604249 E0.004962
G1 X24.512572 Y8.453779 E0.009248
G1 X24.130134 Y8.406551 E0.012817
G1 X22.236264 Y8.51748 E0.063098
G1 X21.178623 Y8.788129 E0.036311
G1 X19.860026 Y8.974993 E0.044295
G1 X16.586071 Y9.900604 E0.11316
G1 X15.797301 Y10.355683 E0.030288
G1 X15.616681 Y10.647436 E0.011413
G1 X15.580554 Y10.888735 E0.008115
G1 X15.722301 Y11.297871 E0.014401
G1 X15.932131 Y11.583219 E0.01178
G1 X16.208869 Y11.743707 E0.01064
G1 X16.692951 Y11.83815 E0.016404
G0 F3000 X23.102303 Y18.33165
G1 F1000 X23.710505 Y18.119973 E0.021419
G1 X26.609578 Y16.677919 E0.107694
G1 X28.207671 Y16.028332 E0.057376
G1 X28.61746 Y15.757214 E0.016343
G1 X28.856815 Y15.478513 E0.012219
G1 X28.947763 Y15.175693 E0.010516
G1 X28.91347 Y14.876772 E0.010007
G1 X28.353774 Y13.39622 E0.052645
G1 X27.499253 Y12.06401 E0.052641
G1 X26.917647 Y11.497069 E0.027014
G1 X26.259573 Y11.351674 E0.022415
G1 X25.196617 Y11.54096 E0.03591
G1 X21.531162 Y12.843547 E0.129383
G1 X19.376828 Y13.719262 E0.077347
G1 X18.273914 Y14.224354 E0.040347
G1 X17.973609 Y14.526815 E0.014176
G1 X17.934197 Y14.808826 E0.009471
G1 X18.21133 Y15.266114 E0.017785
G1 X21.195965 Y17.780094 E0.129792
G1 X22.03422 Y18.268135 E0.032262
G1 X23.102303 Y18.33165 E0.035587
G0 F3000 X33.013011 Y14.0859
G1 F1000 X33.562344 Y13.953697 E0.018793
G1 X37.170842 Y12.634259 E0.127791
G1 X39.691921 Y11.572896 E0.090979
G1 X40.509557 Y11.329525 E0.028374
G1 X41.630846 Y10.729914 E0.042292
G1 X42.520682 Y10.409508 E0.031456
G1 X47.534641 Y7.879592 E0.186791
G1 X49.011634 Y6.943266 E0.058164
G1 X49.206961 Y6.65569 E0.011563
G1 X49.21814 Y6.504805 E0.005032
G1 X48.687085 Y6.354457 E0.018357
G1 X47.830212 Y6.375347 E0.028508
G1 X46.326146 Y6.653566 E0.050874
G1 X44.606798 Y6.763751 E0.057303
G1 X43.430542 Y7.049859 E0.040263
G1 X41.516436 Y7.196224 E0.063849
G1 X40.419491 Y7.503156 E0.037886
G1 X39.067127 Y7.632766 E0.045186
G1 X38.182214 Y7.905446 E0.030798
G1 X36.979754 Y8.078768 E0.040407
G1 X36.214199 Y8.339946 E0.026903
G1 X35.1344 Y8.55105 E0.036594
G1 X30.925296 Y9.88416 E0.146849
G1 X30.44014 Y10.229973 E0.019816
G1 X30.316619 Y10.540564 E0.011117
G1 X30.413654 Y11.200368 E0.022181
G1 X30.788211 Y12.18618 E0.035075
G1 X31.354551 Y13.159012 E0.03744
G1 X31.877099 Y13.794869 E0.027374
G1 X32.365661 Y14.039382 E0.018171
G1 X33.013011 Y14.0859 E0.021586
G0 F3000 X65.357266 Y14.3856
G1 F1000 X65.543307 Y14.077531 E0.01197
G1 X65.522391 Y13.8306 E0.008242
G1 X64.760509 Y12.214339 E0.05943
G1 X63.79517 Y10.817497 E0.056474
G1 X63.51374 Y10.673373 E0.010516
G1 X63.236613 Y10.692867 E0.00924
G1 X63.142246 Y10.796006 E0.00465
G1 X63.172193 Y11.013115 E0.007289
G1 X63.807133 Y12.313329 E0.048126
G1 X64.866989 Y13.979735 E0.065685
G1 X65.138614 Y14.286374 E0.013625
G1 X65.357266 Y14.3856 E0.007986
G0 F3000 X71.463614 Y31.21875
G1 F1000 X71.648724 Y30.898017 E0.012317
G1 X71.684221 Y30.621749 E0.009264
G1 X71.372438 Y29.780082 E0.029853
G1 X66.315898 Y21.070007 E0.334978
G1 X65.014331 Y19.528761 E0.067096
G1 X63.87204 Y17.73668 E0.070684
G1 X63.047969 Y16.945824 E0.037989
G1 X62.292648 Y15.83309 E0.044731
G1 X61.509744 Y15.129085 E0.035019
G1 X60.771138 Y14.109696 E0.041869
G1 X60.091769 Y13.523636 E0.029842
G1 X59.509527 Y12.805823 E0.030741
G1 X58.352493 Y11.719034 E0.052797
G1 X57.430553 Y11.155697 E0.035935
G1 X56.612865 Y11.06051 E0.02738
G1 X55.733097 Y11.188391 E0.029569
G1 X53.889759 Y12.011293 E0.067142
G1 X52.048614 Y12.985868 E0.069287
G1 X51.096056 Y13.336754 E0.033763
G1 X49.93946 Y13.975165 E0.04394
G1 X48.35077 Y14.62731 E0.057119
G1 X44.538136 Y16.683407 E0.144073
G1 X40.868387 Y18.933849 E0.143179
G1 X40.058557 Y19.479429 E0.032477
G1 X39.256179 Y20.33642 E0.039047
G1 X39.312905 Y20.665623 E0.011111
G1 X39.532953 Y20.845119 E0.009445
G1 X40.227792 Y21.075792 E0.024351
G1 X42.686224 Y22.15731 E0.08933
G1 X43.437983 Y22.370695 E0.025991
G1 X47.597384 Y23.919715 E0.147624
G1 X52.845963 Y25.627049 E0.183572
G1 X55.163333 Y26.251169 E0.079822
G1 X57.19684 Y26.915381 E0.071151
G1 X58.150003 Y27.11638 E0.0324
G1 X60.28996 Y27.797715 E0.074696
G1 X61.144704 Y27.979577 E0.029065
G1 X61.784893 Y28.229398 E0.022857
G1 X65.432645 Y29.287256 E0.126324
G1 X70.799939 Y31.155508 E0.189022
G1 X71.463614 Y31.21875 E0.022174
G0 F3000 X80.564163 Y33.91605
G1 F1000 X81.021206 Y33.772084 E0.015938
G1 X81.596731 Y33.403523 E0.022731
G1 X82.133421 Y32.871902 E0.025125
G1 X82.992308 Y31.491252 E0.054081
G1 X83.932135 Y30.286753 E0.050814
G1 X84.559834 Y29.333623 E0.037958
G1 X87.082613 Y25.126898 E0.163147
G1 X88.534414 Y22.532445 E0.098883
G1 X91.880362 Y15.933422 E0.246086
G1 X92.13064 Y14.918227 E0.034776
G1 X92.538245 Y13.885347 E0.036932
G1 X92.773307 Y12.625735 E0.042618
G1 X92.77463 Y11.696013 E0.030923
G1 X92.649778 Y11.295611 E0.01395
G1 X91.343961 Y9.006519 E0.087652
G1 X90.913296 Y8.641325 E0.018781
G1 X90.314069 Y8.478991 E0.020649
G1 X88.047339 Y8.387478 E0.075453
G1 X86.167208 Y8.126245 E0.063134
G1 X84.728495 Y8.02884 E0.047961
G1 X76.921547 Y8.004727 E0.259661
G1 X74.871053 Y8.075186 E0.06824
G1 X72.777656 Y8.37236 E0.070325
G1 X70.396913 Y8.475332 E0.079258
G1 X69.664106 Y8.647289 E0.025035
G1 X69.149454 Y8.934957 E0.01961
G1 X68.839668 Y9.289152 E0.015651
G1 X68.022838 Y10.682098 E0.053708
G1 X67.799216 Y11.298061 E0.021795
G1 X67.816363 Y13.015425 E0.057123
G1 X68.091197 Y13.829501 E0.028578
G1 X68.25854 Y14.72273 E0.030226
G1 X68.618224 Y15.599992 E0.031535
G1 X68.863612 Y16.678738 E0.036796
G1 X69.545412 Y18.01366 E0.049855
G1 X70.280956 Y19.880063 E0.066724
G1 X70.979724 Y21.261741 E0.051498
G1 X74.492841 Y27.357261 E0.234
G1 X76.303556 Y30.337814 E0.115993
G1 X77.325017 Y31.517336 E0.051897
G1 X78.238174 Y32.930183 E0.055952
G1 X78.591433 Y33.319575 E0.017487
G1 X79.49699 Y33.835418 E0.034663
G1 X80.564163 Y33.91605 E0.035595
G0 F3000 X89.459017 Y31.1688
G1 F1000 X93.377619 Y29.740101 E0.138726
G1 X97.38295 Y28.443621 E0.140023
G1 X98.304596 Y28.232348 E0.031449
G1 X100.432526 Y27.548278 E0.074342
G1 X101.288771 Y27.366665 E0.029112
G1 X103.428053 Y26.685095 E0.074677
G1 X104.380295 Y26.483968 E0.03237
G1 X106.411346 Y25.818558 E0.071086
G1 X108.716139 Y25.190941 E0.079449
G1 X113.892647 Y23.461299 E0.181528
G1 X116.352013 Y22.58069 E0.086884
G1 X120.599639 Y20.86034 E0.152424
G1 X121.035834 Y20.498783 E0.018844
G1 X121.105248 Y20.324979 E0.006225
G1 X121.071982 Y20.098311 E0.00762
G1 X120.828892 Y19.777103 E0.013398
G1 X119.778231 Y19.106961 E0.041448
G1 X118.442009 Y18.074758 E0.056159
G1 X113.20574 Y15.064541 E0.200887
G1 X111.640508 Y14.405708 E0.056484
G1 X110.429522 Y13.733906 E0.04606
G1 X108.903286 Y13.113069 E0.054802
G1 X107.671529 Y12.448174 E0.046556
G1 X106.78417 Y12.126548 E0.031393
G1 X104.25865 Y10.766997 E0.095397
G1 X103.634127 Y10.655114 E0.021102
G1 X103.088421 Y10.746284 E0.018402
G1 X102.337738 Y11.159747 E0.028504
G1 X101.773028 Y11.733556 E0.026777
G1 X101.250329 Y12.11937 E0.021608
G1 X100.642728 Y12.82932 E0.03108
G1 X99.992373 Y13.37471 E0.02823
G1 X99.3189 Y14.263751 E0.037096
G1 X98.720187 Y14.725248 E0.025142
G1 X97.907863 Y15.870645 E0.046704
G1 X97.120142 Y16.573225 E0.035107
G1 X96.0521 Y18.237916 E0.065784
G1 X94.758 Y19.781899 E0.067006
G1 X88.922972 Y29.897198 E0.388399
G1 X88.723575 Y30.473158 E0.020272
G1 X88.771363 Y30.890627 E0.013976
G1 X88.986284 Y31.11435 E0.010318
G1 X89.459017 Y31.1688 E0.015827
G0 F3000 X97.5512 Y39.910114
G1 F1000 X62.337856 Y39.885041 E1.171201
G1 X61.909521 Y39.778285 E0.014682
G1 X61.317577 Y39.413512 E0.023126
G1 X60.932288 Y39.283851 E0.013521
G1 X59.624705 Y39.095458 E0.043939
G1 X58.716646 Y38.825885 E0.031505
G1 X57.575353 Y38.685061 E0.038247
G1 X56.554246 Y38.354461 E0.035698
G1 X55.430618 Y38.205574 E0.037699
G1 X54.448691 Y37.913414 E0.034074
G1 X53.313864 Y37.768843 E0.03805
G1 X52.551074 Y37.505647 E0.026838
G1 X51.212621 Y37.32612 E0.044916
G1 X50.330749 Y37.051489 E0.030721
G1 X49.074041 Y36.895065 E0.042121
G1 X48.191761 Y36.621831 E0.03072
G1 X46.9326 Y36.465346 E0.042202
G1 X45.942859 Y36.174331 E0.034312
G1 X44.785173 Y36.03847 E0.038769
G1 X43.804031 Y35.744267 E0.034068
G1 X42.633503 Y35.609364 E0.03919
G1 X41.8045 Y35.320445 E0.029199
G1 X40.546711 Y35.162915 E0.042161
G1 X39.662561 Y34.888283 E0.030793
G1 X38.567746 Y34.732853 E0.036779
G1 X37.72253 Y34.446682 E0.02968
G1 X36.477367 Y34.28676 E0.041754
G1 X35.696532 Y34.029923 E0.02734
G1 X34.782477 Y33.866059 E0.030886
G1 X34.009748 Y33.6073 E0.027104
G1 X31.500822 Y32.992902 E0.085913
G1 X30.858658 Y32.744091 E0.022906
G1 X29.793687 Y32.527507 E0.036146
G1 X24.724507 Y30.764209 E0.178511
G1 X23.530778 Y30.187142 E0.044099
G1 X22.648153 Y29.913941 E0.03073
G1 X21.479511 Y29.279669 E0.044225
G1 X19.891098 Y28.62751 E0.05711
G1 X13.145222 Y24.740907 E0.258944
G1 X10.622224 Y22.980952 E0.102315
G1 X8.854186 Y21.635056 E0.073905
G1 X7.381718 Y20.296287 E0.066191
G1 X6.848907 Y19.91422 E0.021807
G1 X6.30259 Y19.285111 E0.027713
G1 X5.623199 Y18.698498 E0.029854
G1 X5.046505 Y17.97885 E0.030673
G1 X4.306615 Y17.311435 E0.033142
G1 X3.36294 Y15.907149 E0.056273
G1 X2.336833 Y14.729646 E0.051948
G1 X1.530377 Y13.333115 E0.053637
G1 X1.234567 Y12.628461 E0.025418
G1 X1.083117 Y12.023549 E0.02074
G1 X0.589535 Y10.979685 E0.038405
G1 X-0.003689 Y10.17914 E0.03314
G1 X-0.078488 Y8.84115 E0.044571
G1 X-0.050726 Y0.158981 E0.288772
G1 X0.255579 Y0.004903 E0.011404
G1 X1.27969 Y-0.024872 E0.034076
G1 X158.48039 E5.228516
G1 X159.685114 Y0.04839 E0.040143
G1 X159.810806 Y0.158981 E0.005568
G1 X159.83971 Y0.399703 E0.008064
G1 X159.791127 Y10.088953 E0.32227
G1 X159.727638 Y10.362447 E0.009338
G1 X159.408613 Y10.752971 E0.016772
G1 X159.097623 Y11.354964 E0.022536
G1 X158.733365 Y12.537733 E0.041162
G1 X158.361035 Y13.324915 E0.028963
G1 X157.203758 Y15.26111 E0.075025
G1 X156.296354 Y16.225471 E0.044041
G1 X155.414975 Y17.499779 E0.051534
G1 X154.716273 Y18.129645 E0.031288
G1 X154.05232 Y18.921788 E0.034378
G1 X150.937438 Y21.695336 E0.138719
G1 X146.668638 Y24.757293 E0.174729
G1 X139.92708 Y28.59646 E0.258035
G1 X139.121674 Y28.892618 E0.028542
G1 X137.848054 Y29.544787 E0.047591
G1 X135.876987 Y30.378201 E0.071177
G1 X135.125887 Y30.591997 E0.025974
G1 X132.31731 Y31.663446 E0.09998
G1 X130.19805 Y32.299118 E0.073589
G1 X129.576997 Y32.556486 E0.02236
G1 X127.098347 Y33.179017 E0.085001
G1 X126.422686 Y33.419149 E0.02385
G1 X125.407327 Y33.60002 E0.034303
G1 X124.639954 Y33.860221 E0.02695
G1 X123.584068 Y34.029776 E0.035569
G1 X122.695933 Y34.302988 E0.030906
G1 X121.585894 Y34.455033 E0.037265
G1 X120.734781 Y34.740354 E0.029856
G1 X119.6185 Y34.889635 E0.037458
G1 X118.628749 Y35.180528 E0.034312
G1 X117.505744 Y35.328418 E0.037674
G1 X116.762679 Y35.596231 E0.026271
G1 X115.516954 Y35.756325 E0.041774
G1 X114.628611 Y36.029464 E0.030912
G1 X113.439717 Y36.204994 E0.039971
G1 X112.676607 Y36.467536 E0.026841
G1 X111.291673 Y36.634054 E0.046395
G1 X110.532168 Y36.896846 E0.026731
G1 X109.304967 Y37.062387 E0.041187
G1 X108.414787 Y37.334194 E0.030957
G1 X107.234085 Y37.514463 E0.039725
G1 X106.563837 Y37.754679 E0.023681
G1 X105.363251 Y37.929122 E0.040351
G1 X104.410029 Y38.232616 E0.033272
G1 X103.313774 Y38.38657 E0.036819
G1 X102.305263 Y38.722928 E0.03536
G1 X98.657241 Y39.431456 E0.123601
G1 X97.5512 Y39.910114 E0.040084
G0 F3000 X127.166332 Y13.53645
G1 F1000 X127.574599 Y13.298634 E0.015715
G1 X127.90195 Y12.901091 E0.017128
G1 X129.190571 Y10.406715 E0.09338
G1 X129.312034 Y10.039396 E0.012868
G1 X129.3049 Y9.792248 E0.008224
G1 X129.163524 Y9.530026 E0.009908
G1 X128.911357 Y9.360216 E0.010112
G1 X127.730517 Y8.980373 E0.041257
G1 X124.476141 Y8.347618 E0.110268
G1 X123.590092 Y8.074646 E0.030837
G1 X122.442893 Y7.933667 E0.038443
G1 X121.458246 Y7.642554 E0.034151
G1 X120.03403 Y7.488221 E0.047647
G1 X118.84186 Y7.21056 E0.040713
G1 X117.372084 Y7.071376 E0.049104
G1 X116.247244 Y6.772323 E0.038712
G1 X114.307517 Y6.629707 E0.06469
G1 X112.866382 Y6.331792 E0.048946
G1 X111.937119 Y6.366938 E0.030929
G1 X111.522753 Y6.503131 E0.014507
G1 X111.820331 Y6.956835 E0.018047
G1 X113.315813 Y7.888279 E0.058599
G1 X117.602847 Y10.046462 E0.159636
G1 X118.391592 Y10.298487 E0.02754
G1 X119.620004 Y10.914268 E0.045703
G1 X120.367394 Y11.129514 E0.025869
G1 X125.426244 Y13.097157 E0.180537
G1 X126.602865 Y13.475018 E0.041103
G1 X127.166332 Y13.53645 E0.018852
G0 F3000 X137.96764 Y17.8821
G1 F1000 X139.019417 Y17.323483 E0.03961
G1 X141.682696 Y15.057838 E0.116297
G1 X142.208257 Y14.274892 E0.031364
G1 X142.238867 Y13.939678 E0.011196
G1 X142.135276 Y13.721179 E0.008043
G1 X141.628773 Y13.380563 E0.020301
G1 X139.62559 Y12.55731 E0.072033
G1 X136.036592 Y11.13081 E0.128454
G1 X133.619877 Y10.287351 E0.085135
G1 X132.595381 Y10.110511 E0.034579
G1 X132.137899 Y10.17952 E0.015388
G1 X131.778567 Y10.365219 E0.013453
G1 X131.469977 Y10.719031 E0.015615
G1 X130.790422 Y11.855432 E0.044039
G1 X130.0007 Y13.40539 E0.057858
G1 X129.835805 Y14.13259 E0.024801
G1 X130.039217 Y14.602915 E0.017043
G1 X130.421327 Y14.883657 E0.01577
G1 X134.925283 Y16.772857 E0.162447
G1 X136.495371 Y17.581711 E0.058744
G1 X137.274574 Y17.835349 E0.027255
G1 X137.96764 Y17.8821 E0.023104
G0 F3000 X145.779191 Y5.7942
G1 F1000 X146.186442 Y5.625313 E0.014664
G1 X146.443092 Y5.30722 E0.013594
G1 X146.71611 Y3.995369 E0.044567
G1 X146.691342 Y3.705027 E0.009692
G1 X146.562888 Y3.497496 E0.008118
G1 X146.072113 Y3.299709 E0.017599
G1 X140.928032 Y2.861109 E0.171714
G1 X139.450022 Y2.813966 E0.049184
G1 X133.216956 Y2.870473 E0.207321
G1 X132.143382 Y2.987022 E0.035917
G1 X131.945129 Y3.076168 E0.00723
G1 X131.874481 Y3.2006 E0.004759
G1 X131.96119 Y3.415137 E0.007696
G1 X132.226016 Y3.53126 E0.009618
G1 X133.253303 Y3.708343 E0.034672
G1 X136.213409 Y4.433227 E0.101363
G1 X137.496237 Y4.630575 E0.043169
G1 X138.411051 Y4.895136 E0.031674
G1 X139.833418 Y5.051879 E0.047594
G1 X141.088297 Y5.357323 E0.042956
G1 X142.887964 Y5.494518 E0.060031
G1 X144.231964 Y5.774694 E0.045663
G1 X145.779191 Y5.7942 E0.051465
G0 F3000 X154.359233 Y6.993
G1 F1000 X154.675745 Y6.678632 E0.014837
G1 X154.867227 Y6.290084 E0.014407
G1 X154.905079 Y5.994227 E0.00992
G1 X154.768299 Y5.579495 E0.014525
G1 X154.381073 Y5.101244 E0.020467
G1 X152.995509 Y4.285689 E0.053475
G1 X151.316564 Y3.760414 E0.058511
G1 X149.451431 Y3.570358 E0.062356
G1 X148.750774 Y3.678252 E0.023579
G1 X148.405022 Y4.020345 E0.016177
G1 X148.274504 Y4.392894 E0.013129
G1 X148.127379 Y5.493705 E0.036939
G1 X148.268304 Y5.811154 E0.011552
G1 X148.62507 Y6.100681 E0.015282
G1 X149.048179 Y6.217742 E0.014601
G1 X150.497139 Y6.363776 E0.048437
G1 X151.611965 Y6.617053 E0.038024
G1 X153.017774 Y6.776605 E0.047058
G1 X153.808663 Y6.972743 E0.027102
G1 X154.359233 Y6.993 E0.018324
G0 F3000 X0.986027 Y0.04995
G1 F1000 X1.110254 Y2.23388 E0.072755
G1 X1.451071 Y3.618584 E0.04743
G1 X1.864506 Y4.287475 E0.026154
G1 X2.711719 Y5.272161 E0.043205
G1 X4.165956 Y7.714593 E0.094545
G1 X4.559774 Y8.141642 E0.019321
G1 X5.0072 Y8.381823 E0.01689
G1 X5.621646 Y8.323681 E0.020528
G1 X7.374028 Y7.522527 E0.064087
G1 X8.840681 Y7.231456 E0.049732
G1 X14.357599 Y6.707481 E0.184319
G1 X16.767506 Y6.627427 E0.080198
G1 X17.922095 Y6.764799 E0.038673
G1 X20.268176 Y7.429946 E0.081106
G1 X23.474507 Y7.530016 E0.106695
G1 X26.585184 Y8.304831 E0.106623
G1 X31.818491 Y8.768459 E0.174742
G1 X32.337057 Y8.905437 E0.017839
G1 X32.784353 Y9.1908 E0.017647
G0 F3000 X30.06496 Y10.643246
G1 F1000 X25.890674 Y10.41244 E0.139049
G1 X23.587616 Y10.435836 E0.076604
G1 X23.136517 Y10.330391 E0.015408
G1 X22.750298 Y10.03995 E0.016073
G0 F3000 X22.779972 Y12.23775
G1 F1000 X22.452438 Y11.941948 E0.014679
G1 X21.940255 Y11.805589 E0.017629
G1 X20.111404 Y11.923997 E0.060955
G1 X19.591611 Y11.885052 E0.017337
G1 X19.156124 Y11.72423 E0.01544
G1 X18.842254 Y11.43855 E0.014116
G0 F3000 X18.552874 Y9.24075
G1 F1000 X17.956531 Y8.85144 E0.023687
G1 X17.079014 Y8.734366 E0.029445
G1 X10.821877 Y8.998193 E0.208298
G1 X9.213493 Y9.246469 E0.054129
G1 X7.420939 Y9.685397 E0.061382
G1 X6.814281 Y9.995346 E0.022659
G1 X6.608146 Y10.224935 E0.010262
G1 X6.550739 Y10.442924 E0.007498
G1 X6.597131 Y10.85139 E0.013673
G1 X6.964109 Y11.58577 E0.027305
G1 X8.19545 Y13.349226 E0.071536
G1 X9.496366 Y14.891002 E0.067095
G1 X12.203284 Y17.542046 E0.126018
G1 X15.624141 Y20.21956 E0.144486
G1 X17.230673 Y21.666007 E0.0719
G1 X17.946593 Y22.441329 E0.0351
G1 X18.284052 Y22.98659 E0.021328
G1 X18.376055 Y23.610031 E0.02096
G1 X18.275924 Y23.766014 E0.006165
G1 X18.050175 Y23.891422 E0.008589
G1 X17.473809 Y23.923847 E0.0192
G1 X16.979188 Y23.743526 E0.01751
G1 X16.263458 Y23.31661 E0.027718
G1 X11.259969 Y19.385091 E0.211645
G1 X9.500336 Y17.836795 E0.077956
G1 X8.063176 Y16.387947 E0.067875
G1 X6.888236 Y15.056352 E0.059065
G1 X5.571843 Y13.319426 E0.072487
G1 X3.430133 Y9.842623 E0.135818
G1 X1.6444 Y7.75299 E0.091422
G1 X0.637748 Y5.517284 E0.08155
G1 X0.450533 Y5.328593 E0.008841
G1 X0.080035 Y5.14485 E0.013755
G0 F3000 X0.15992 Y9.16829
G1 F1000 X0.600955 Y9.377869 E0.016241
G1 X0.984308 Y9.755247 E0.017892
G1 X3.189884 Y13.664527 E0.14929
G1 X5.071413 Y16.223129 E0.105632
G1 X7.019549 Y18.361968 E0.096224
G1 X9.239389 Y20.415957 E0.10059
G1 X13.070433 Y23.364848 E0.160798
G1 X15.168326 Y24.807717 E0.084686
G1 X16.404745 Y25.470798 E0.046664
G1 X19.271005 Y26.572862 E0.102136
G1 X22.781937 Y28.573702 E0.134406
G1 X25.932984 Y30.186712 E0.117738
G1 X26.752656 Y30.729573 E0.032699
G1 X27.151323 Y31.199614 E0.0205
G1 X27.287713 Y31.61835 E0.014647
G0 F3000 X37.461911 Y34.31565
G1 F1000 X36.986016 Y33.676948 E0.026492
G1 X36.392585 Y33.313215 E0.02315
G1 X32.121785 Y31.800265 E0.150697
G1 X30.381684 Y30.994981 E0.063773
G1 X29.477361 Y30.428305 E0.035495
G1 X27.02128 Y28.647841 E0.100896
G1 X23.363355 Y26.443663 E0.142044
G1 X21.89697 Y25.403448 E0.059797
G1 X20.989749 Y24.587454 E0.040584
G1 X20.623383 Y24.152391 E0.018917
G1 X20.246562 Y23.519251 E0.024506
G1 X19.437513 Y21.476256 E0.073084
G1 X18.414198 Y20.097496 E0.057108
G1 X17.402151 Y19.064244 E0.048105
G1 X16.629924 Y18.407125 E0.033725
G1 X14.056031 Y16.463931 E0.107265
G1 X13.087985 Y15.617348 E0.042773
G1 X11.503242 Y13.864459 E0.078596
G1 X10.027049 Y12.478272 E0.067352
G1 X9.686246 Y11.932012 E0.021415
G1 X9.655406 Y11.688635 E0.008159
G1 X9.795501 Y11.326405 E0.012918
G1 X10.026658 Y11.150329 E0.009665
G1 X10.414922 Y11.021117 E0.01361
G1 X11.201021 Y10.956894 E0.026233
G1 X13.190983 Y10.979585 E0.066191
G1 X15.35232 Y10.835769 E0.072045
G0 F3000 X18.898459 Y13.83615
G1 F1000 X18.545391 Y13.463184 E0.017082
G1 X17.943328 Y13.202133 E0.021826
G1 X16.347015 Y12.951319 E0.053745
G1 X15.347509 Y12.88316 E0.033321
G1 X14.750762 Y12.92709 E0.019902
G1 X14.327899 Y13.092458 E0.015102
G1 X14.063531 Y13.501137 E0.016189
G1 X14.11341 Y13.849108 E0.011692
G1 X14.341148 Y14.17676 E0.013272
G1 X14.85892 Y14.615022 E0.022562
G1 X17.23073 Y16.071706 E0.092577
G1 X19.357471 Y17.954528 E0.094473
G1 X20.462842 Y19.307903 E0.058119
G1 X21.646665 Y21.635244 E0.086846
G1 X22.285129 Y22.634646 E0.039444
G1 X23.246249 Y23.683435 E0.047315
G1 X24.573745 Y24.76735 E0.057001
G1 X30.177905 Y28.361468 E0.221434
G1 X32.236983 Y29.516438 E0.078523
G1 X37.007095 Y31.522862 E0.172118
G1 X39.995586 Y33.187069 E0.11377
G1 X41.250132 Y33.744546 E0.045661
G1 X43.67408 Y34.485898 E0.084307
G1 X47.051077 Y35.379014 E0.116181
G1 X48.190589 Y35.772307 E0.040094
G1 X49.031374 Y36.258401 E0.032302
G1 X49.41528 Y36.87142 E0.024057
G0 F3000 X58.053348 Y38.6613
G1 F1000 X57.760526 Y38.178787 E0.018772
G1 X57.132842 Y37.724411 E0.025773
G1 X56.196916 Y37.317438 E0.033945
G1 X52.881428 Y36.155196 E0.116853
G1 X48.859316 Y34.014776 E0.151539
G1 X46.966772 Y33.30693 E0.067205
G1 X43.680347 Y32.285507 E0.114465
G1 X41.705504 Y31.553832 E0.070047
G1 X34.305242 Y28.220911 E0.269945
G1 X32.195061 Y27.181912 E0.078231
G1 X29.369229 Y25.517073 E0.109086
G1 X25.641845 Y23.035169 E0.148942
G1 X24.78476 Y22.253583 E0.03858
G1 X23.490314 Y20.809918 E0.064492
G1 X23.140376 Y20.268467 E0.021443
G1 X23.026948 Y19.810228 E0.015701
G1 X23.108143 Y19.429432 E0.01295
G1 X23.440279 Y19.134144 E0.014781
G1 X25.072627 Y18.595608 E0.05717
G1 X26.818116 Y17.842217 E0.063232
G1 X27.84268 Y17.51211 E0.035802
G1 X29.324364 Y17.226027 E0.050191
G1 X32.7291 Y16.841213 E0.113963
G1 X34.310789 Y16.585719 E0.053289
G1 X40.057096 Y14.934367 E0.198858
G1 X43.565416 Y13.682065 E0.123898
G1 X44.567586 Y13.395597 E0.034667
G1 X45.752663 Y13.167053 E0.040142
G1 X47.936595 Y12.950118 E0.072995
G1 X48.952418 Y12.767563 E0.034328
G1 X53.394169 Y11.307541 E0.15551
G1 X54.314235 Y11.235662 E0.030695
G1 X54.908709 Y11.3886 E0.020416
G0 F3000 X61.611418 Y14.93505
G1 F1000 X61.536952 Y14.228247 E0.023638
G1 X61.167427 Y13.437288 E0.029037
G1 X59.659517 Y11.410842 E0.084012
G1 X58.7491 Y9.796613 E0.06164
G1 X58.385699 Y9.510787 E0.015377
G1 X57.972191 Y9.340579 E0.014873
G1 X56.529801 Y9.198848 E0.048205
G1 X54.291215 Y9.244201 E0.074471
G1 X52.878227 Y9.398007 E0.047274
G1 X51.514645 Y9.721204 E0.046609
G1 X47.779744 Y10.853261 E0.129804
G1 X44.593504 Y11.254998 E0.106814
G1 X43.619386 Y11.450854 E0.033048
G1 X42.256732 Y11.875066 E0.047467
G1 X37.210489 Y13.695952 E0.178431
G1 X34.038535 Y14.653222 E0.110199
G1 X32.488665 Y14.867531 E0.052039
G1 X29.26536 Y15.044483 E0.107369
G0 F3000 X37.983402 Y7.84215
G1 F1000 X37.533333 Y7.482476 E0.019162
G1 X36.863685 Y7.291786 E0.023158
G1 X34.230753 Y7.164862 E0.087673
G1 X27.627728 Y6.330395 E0.221364
G1 X26.397088 Y6.115896 E0.041548
G1 X23.631595 Y5.432237 E0.09475
G1 X20.518617 Y5.402598 E0.103543
G1 X19.886676 Y5.252536 E0.021603
G1 X19.488616 Y4.995 E0.015769
G0 F3000 X18.159224 Y2.997
G1 F1000 X17.863782 Y2.5867 E0.016816
G1 X17.298835 Y2.164068 E0.023466
G1 X16.485416 Y1.769196 E0.030074
G1 X15.506394 Y1.425132 E0.034515
G1 X14.242415 Y1.17061 E0.042884
G1 X12.834624 Y1.011836 E0.04712
G1 X8.565892 Y0.8459 E0.142086
G1 X7.736296 Y0.556329 E0.029225
G1 X7.541241 Y0.369234 E0.00899
G1 X7.390042 Y0.04995 E0.01175
G0 F3000 X5.648824 Y4.74525
G1 F1000 X5.324016 Y4.505098 E0.013435
G1 X4.377466 Y4.052824 E0.034892
G1 X3.922685 Y3.593867 E0.02149
G1 X3.327878 Y2.187586 E0.050785
G1 X3.063285 Y1.107068 E0.037
G1 X2.943863 Y0.04995 E0.035384
G0 F3000 X4.90043
G1 F1000 X5.099222 Y0.83244 E0.026852
G1 X5.549075 Y1.687657 E0.03214
G1 X6.031547 Y2.288201 E0.025622
G1 X6.580658 Y2.615202 E0.021257
G1 X7.109208 Y2.748843 E0.018133
G1 X7.865106 Y2.806149 E0.025213
G1 X10.398007 Y2.722995 E0.08429
G1 X11.553435 Y2.759219 E0.038449
G1 X12.226266 Y2.899584 E0.02286
G1 X12.916876 Y3.2967 E0.026497
G0 F3000 X17.774647 Y0.04995
G1 F1000 X18.135715 Y0.603681 E0.021987
G1 X18.8185 Y0.94073 E0.025326
G1 X19.885469 Y1.155861 E0.036202
G1 X22.034731 Y1.384457 E0.071888
G1 X22.881825 Y1.619121 E0.029236
G1 X23.546292 Y2.061537 E0.026551
G1 X23.877199 Y2.74725 E0.025324
G0 F3000 X25.401533 Y3.5964
G1 F1000 X26.435865 Y4.005621 E0.036997
G1 X28.912605 Y4.481646 E0.083884
G1 X37.322525 Y5.400212 E0.281379
G1 X39.698995 Y6.007372 E0.081581
G1 X42.316983 Y6.438304 E0.088246
G1 X42.881638 Y6.661544 E0.020195
G1 X43.251732 Y6.993 E0.016524
G0 F3000 X41.52173 Y0.04995
G1 F1000 X41.844437 Y0.442197 E0.016894
G1 X42.243608 Y0.666891 E0.015235
G1 X43.070595 Y0.858347 E0.028233
G1 X43.923792 Y0.943902 E0.02852
G1 X49.028101 Y1.04735 E0.169805
G1 X62.026124 Y1.036628 E0.432316
G1 X64.662667 Y1.155298 E0.087781
G1 X66.065149 Y1.368073 E0.047181
G1 X69.226351 Y2.527964 E0.111996
G1 X73.281742 Y3.359403 E0.137688
G1 X77.005462 Y4.494281 E0.129476
G1 X80.690991 Y5.291422 E0.125416
G1 X84.28501 Y6.566655 E0.126839
G1 X85.818261 Y6.886548 E0.052094
G1 X89.22221 Y7.37179 E0.11436
G1 X90.686217 Y7.663784 E0.049652
G1 X94.462274 Y9.08197 E0.134158
G1 X95.097472 Y9.382876 E0.023377
G1 X95.513314 Y9.707767 E0.017552
G1 X95.598897 Y9.990278 E0.009818
G1 X95.508467 Y10.43053 E0.014949
G1 X93.434908 Y12.625926 E0.10044
G1 X92.91352 Y13.049527 E0.022343
G0 F3000 X100.42976 Y12.64032
G1 F1000 X99.966851 Y12.633104 E0.015398
G1 X99.475949 Y12.763691 E0.016895
G1 X98.483893 Y13.40297 E0.039253
G1 X97.601161 Y14.276475 E0.041305
G1 X96.136188 Y15.9669 E0.074399
G1 X93.550011 Y19.305076 E0.14045
G1 X93.008211 Y19.884741 E0.02639
G1 X92.332214 Y20.422977 E0.02874
G1 X90.680168 Y21.35527 E0.063093
G1 X89.205046 Y22.543171 E0.062993
G1 X88.59568 Y22.791755 E0.021889
G0 F3000 X90.51472 Y19.061598
G1 F1000 X91.057857 Y18.826581 E0.019683
G1 X91.611627 Y18.349887 E0.024303
G1 X93.908161 Y15.270613 E0.127764
G1 X97.291337 Y11.582124 E0.16647
G1 X97.832778 Y11.201659 E0.02201
G1 X98.563139 Y10.880218 E0.02654
G1 X100.538502 Y10.547341 E0.066627
G1 X101.138129 Y10.336841 E0.021137
G1 X101.376291 Y10.111127 E0.010914
G1 X101.453963 Y9.888755 E0.007834
G1 X101.377976 Y9.617375 E0.009373
G1 X101.169562 Y9.333686 E0.011708
G1 X100.310514 Y8.853473 E0.032733
G1 X97.722566 Y8.113175 E0.089528
G1 X94.860809 Y6.958918 E0.102633
G1 X91.748514 Y5.883702 E0.109519
G1 X89.830606 Y5.433433 E0.065524
G1 X86.393754 Y4.859753 E0.115892
G1 X84.896106 Y4.527209 E0.051025
G1 X81.26332 Y3.364413 E0.126866
G1 X77.227592 Y2.526913 E0.137089
G1 X76.171321 Y2.15749 E0.037218
G1 X74.710811 Y1.514101 E0.053081
G1 X73.973617 Y1.295505 E0.025574
G1 X69.713447 Y0.77732 E0.142738
G1 X69.007615 Y0.498355 E0.025243
G1 X68.587425 Y0.04995 E0.020439
G0 F3000 X76.632657
G1 F1000 X77.004723 Y0.497936 E0.019369
G1 X77.716422 Y0.776652 E0.025422
G1 X81.647918 Y1.245976 E0.131691
G1 X82.637462 Y1.536236 E0.034299
G1 X84.075353 Y2.186015 E0.052481
G1 X85.277026 Y2.610353 E0.042387
G1 X86.542609 Y2.864256 E0.042932
G1 X89.430538 Y3.260534 E0.096953
G1 X91.184798 Y3.662325 E0.059858
G1 X95.286002 Y4.978578 E0.14326
G1 X100.953551 Y7.004262 E0.200182
G1 X101.875092 Y7.415834 E0.033569
G1 X103.076816 Y8.089188 E0.045816
G1 X106.109528 Y10.089226 E0.120829
G1 X107.954326 Y11.161353 E0.070968
G1 X114.808986 Y14.664448 E0.256034
G1 X116.383483 Y15.571499 E0.060436
G1 X118.857397 Y17.146006 E0.097534
G1 X122.417183 Y19.930545 E0.150319
G1 X123.348613 Y20.339104 E0.033829
G1 X124.275166 Y20.489017 E0.031218
G1 X124.981141 Y20.380049 E0.023759
G1 X125.323478 Y19.993624 E0.017171
G1 X125.304463 Y19.726331 E0.008913
G1 X124.875105 Y19.112813 E0.024906
G1 X118.531262 Y14.450781 E0.261846
G1 X116.303691 Y13.098605 E0.086671
G1 X109.706254 Y9.614979 E0.248143
G1 X106.157085 Y7.477011 E0.137809
G1 X103.512231 Y6.005139 E0.100673
G1 X101.189636 Y4.982649 E0.084404
G1 X98.214327 Y3.863339 E0.10573
G1 X96.954568 Y3.408024 E0.044553
G1 X93.548941 Y2.373882 E0.118379
G1 X91.282774 Y1.433033 E0.081611
G1 X89.807687 Y1.145186 E0.049987
G1 X85.719923 Y0.823228 E0.136381
G1 X84.8993 Y0.52925 E0.028993
G1 X84.44888 Y0.04995 E0.021876
G0 F3000 X81.467795 Y7.94205
G1 F1000 X80.93035 Y7.41411 E0.025057
G1 X80.225112 Y7.135422 E0.025221
G1 X76.559503 Y6.531779 E0.123561
G1 X73.288888 Y5.455076 E0.114524
G1 X69.924851 Y4.708041 E0.114614
G1 X66.098186 Y3.654915 E0.132007
G1 X64.65753 Y3.354905 E0.048944
G1 X62.642571 Y3.135569 E0.067414
G1 X60.39813 Y3.044739 E0.074712
G1 X49.919005 Y3.152497 E0.348556
G1 X45.197431 Y2.993709 E0.157129
G1 X42.501625 Y2.584131 E0.090692
G1 X41.521138 Y2.290414 E0.034043
G1 X39.51316 Y1.519238 E0.071542
G1 X38.219702 Y1.224304 E0.044125
G1 X36.412683 Y1.09101 E0.060265
G1 X31.132855 Y0.940288 E0.175679
G1 X29.931949 Y0.815443 E0.040158
G1 X29.392052 Y0.684755 E0.018476
G1 X29.018272 Y0.502099 E0.013837
G1 X28.746228 Y0.285424 E0.011567
G1 X28.636357 Y0.04995 E0.008642
G0 F3000 X24.094767
G1 F1000 X24.355521 Y0.611255 E0.020585
G1 X24.841724 Y0.957023 E0.019843
G1 X26.69858 Y1.576088 E0.065101
G1 X28.252713 Y2.23914 E0.056198
G1 X29.121125 Y2.518081 E0.030337
G1 X31.143826 Y2.834702 E0.068095
G1 X35.998259 Y3.165706 E0.161834
G1 X37.508235 Y3.344414 E0.050573
G1 X44.98794 Y5.104084 E0.255568
G1 X46.349815 Y5.231116 E0.045493
G1 X49.735922 Y5.321106 E0.112662
G1 X57.959987 Y5.049597 E0.273683
G1 X60.754674 Y5.075261 E0.092956
G1 X62.89424 Y5.206256 E0.071295
G1 X65.288123 Y5.606599 E0.080727
G1 X67.998391 Y6.258664 E0.092716
G1 X70.340671 Y6.925818 E0.081003
G1 X73.082862 Y7.417571 E0.092661
G1 X73.843639 Y7.679481 E0.026761
G1 X74.261878 Y8.04195 E0.018408
G0 F3000 X69.08544 Y8.814187
G1 F1000 X68.369293 Y8.490325 E0.026142
G1 X66.732441 Y8.152413 E0.05559
G1 X64.264065 Y7.474695 E0.085137
G1 X62.878321 Y7.208499 E0.046933
G1 X61.148163 Y7.103081 E0.057652
G1 X56.801186 Y7.090348 E0.144582
G1 X53.993109 Y7.200061 E0.093468
G1 X51.937546 Y7.456213 E0.068897
G1 X50.361669 Y7.812805 E0.053739
G1 X47.18204 Y8.967932 E0.112517
G1 X46.358603 Y9.072939 E0.027609
G1 X45.69926 Y8.94105 E0.022364
G0 F3000 X47.01648 Y15.252604
G1 F1000 X46.344567 Y15.071796 E0.023143
G1 X45.371232 Y15.194684 E0.03263
G1 X41.361082 Y16.790305 E0.143549
G1 X38.073014 Y17.560667 E0.112323
G1 X35.013994 Y18.553854 E0.106972
G1 X31.280333 Y18.985722 E0.12501
G1 X27.204651 Y19.91049 E0.139003
G1 X26.658744 Y20.139666 E0.019692
G1 X26.386482 Y20.350868 E0.011461
G1 X26.285656 Y20.729199 E0.013023
G1 X26.392381 Y21.103351 E0.012941
G1 X26.952562 Y21.576542 E0.024389
G1 X28.573844 Y22.518729 E0.062368
G1 X30.877211 Y24.147145 E0.093822
G1 X32.774 Y25.202692 E0.072198
G1 X35.843616 Y26.741477 E0.114206
G1 X41.886255 Y29.399924 E0.219569
G1 X48.56765 Y31.807872 E0.236215
G1 X50.369453 Y32.544223 E0.06474
G1 X53.904935 Y34.237381 E0.13038
G1 X57.326045 Y35.715792 E0.123957
G1 X61.299655 Y37.921337 E0.151156
G1 X62.476546 Y38.402844 E0.042293
G1 X65.165623 Y39.211113 E0.093392
G1 X65.534531 Y39.446104 E0.014548
G1 X65.833013 Y39.8601 E0.016975
G0 F3000 X69.893914
G1 F1000 X69.674639 Y39.501256 E0.013987
G1 X69.328218 Y39.209698 E0.01506
G1 X67.70259 Y38.468989 E0.059417
G1 X65.603002 Y37.326219 E0.079506
G1 X61.498517 Y35.611708 E0.147947
G1 X53.46731 Y31.726481 E0.296734
G1 X49.473721 Y30.026846 E0.144356
G1 X42.90289 Y27.633468 E0.232593
G1 X38.614107 Y25.826132 E0.154794
G1 X35.966639 Y24.605129 E0.096969
G1 X31.782942 Y22.465585 E0.156291
G1 X31.004265 Y21.909342 E0.031828
G1 X30.746421 Y21.477235 E0.016736
G1 X30.835071 Y21.100021 E0.012888
G1 X31.370093 Y20.812296 E0.020205
G1 X32.143015 Y20.714793 E0.025911
G1 X33.199293 Y20.823993 E0.035319
G1 X34.147182 Y21.127276 E0.033101
G1 X34.79709 Y21.473843 E0.024497
G1 X36.760188 Y22.808764 E0.078959
G1 X38.469601 Y23.623655 E0.062985
G1 X43.909109 Y25.870536 E0.195746
G1 X52.969516 Y29.234492 E0.321451
G1 X61.145678 Y33.224168 E0.302589
G1 X66.595535 Y35.567745 E0.197312
G1 X68.966646 Y36.775072 E0.088498
G1 X70.219138 Y37.532959 E0.048691
G1 X72.764703 Y39.235578 E0.101859
G1 X73.030709 Y39.501681 E0.012514
G1 X73.20145 Y39.8601 E0.013205
G0 F3000 X76.382
G1 F1000 X76.126447 Y39.433075 E0.016552
G1 X75.895507 Y39.207073 E0.010747
G1 X74.772915 Y38.458539 E0.044877
G1 X71.418335 Y35.909823 E0.140124
G1 X69.752753 Y34.831412 E0.065995
G1 X67.877929 Y33.868594 E0.070099
G1 X60.247787 Y30.657433 E0.275338
G1 X58.688624 Y29.845797 E0.058464
G1 X56.377618 Y28.419463 E0.090325
G1 X54.281851 Y27.425776 E0.077144
G1 X43.729356 Y23.62961 E0.372997
G1 X37.63449 Y21.137301 E0.21901
G1 X37.193527 Y20.825969 E0.017954
G1 X37.01228 Y20.526936 E0.01163
G1 X37.036548 Y20.239784 E0.009585
G1 X37.293607 Y19.914866 E0.01378
G1 X37.747288 Y19.657138 E0.017354
G1 X38.451363 Y19.427467 E0.024632
G1 X39.206399 Y19.314207 E0.025394
G1 X39.826108 Y19.33065 E0.020619
G0 F3000 X59.194323 Y27.5724
G1 F1000 X59.733221 Y28.221197 E0.028052
G1 X60.50103 Y28.680473 E0.029757
G1 X67.650425 Y31.392049 E0.254318
G1 X69.676282 Y32.257875 E0.073276
G1 X70.738114 Y32.825269 E0.040043
G1 X71.680052 Y33.480225 E0.038158
G1 X75.32381 Y36.438351 E0.156101
G1 X78.137519 Y38.556249 E0.117133
G1 X79.251018 Y38.958841 E0.039381
G1 X80.818495 Y39.01095 E0.052163
G1 X82.253562 Y38.853436 E0.048017
G1 X83.185658 Y38.644467 E0.031771
G1 X83.951141 Y38.384703 E0.026886
G1 X86.188432 Y37.38485 E0.081505
G1 X88.362582 Y36.964936 E0.073649
G1 X95.349937 Y36.602363 E0.232713
G1 X101.706859 Y35.833515 E0.212973
G1 X103.291732 Y35.794214 E0.052729
G1 X106.347931 Y35.949307 E0.10178
G1 X107.784636 Y35.887878 E0.047829
G1 X109.514251 Y35.679936 E0.057942
G1 X115.805713 Y34.597842 E0.212327
G1 X117.511359 Y34.382894 E0.057179
G1 X118.699617 Y34.428392 E0.039551
G1 X119.034039 Y34.523276 E0.011562
G1 X119.417691 Y34.7652 E0.015085
G0 F3000 X132.421104 Y31.4685
G1 F1000 X132.139154 Y31.278224 E0.011313
G1 X131.752367 Y31.162256 E0.01343
G1 X130.77278 Y31.181831 E0.032588
G1 X125.220395 Y32.343467 E0.188671
G1 X123.02579 Y32.657506 E0.073736
G1 X121.459566 Y32.707844 E0.05212
G1 X118.778256 Y32.50542 E0.089435
G1 X117.131768 Y32.519155 E0.054764
G1 X107.850859 Y33.66196 E0.311016
G1 X101.722746 Y33.894324 E0.203968
G1 X93.611979 Y34.655421 E0.27095
G1 X88.97391 Y34.858975 E0.154411
G1 X87.662102 Y35.047941 E0.044081
G1 X86.304372 Y35.372642 E0.046432
G1 X82.769845 Y36.567004 E0.124089
G1 X81.262032 Y36.995532 E0.052136
G1 X80.303541 Y37.110954 E0.03211
G1 X79.51124 Y36.978487 E0.026718
G1 X78.463395 Y36.406657 E0.039703
G1 X76.242558 Y34.752562 E0.092102
G1 X74.112244 Y32.770751 E0.096774
G1 X72.960124 Y31.332809 E0.061284
G1 X72.601563 Y30.645487 E0.025784
G1 X71.091466 Y26.871258 E0.135206
G1 X70.923779 Y25.973996 E0.03036
G1 X70.853422 Y24.138701 E0.061087
G1 X70.610484 Y23.076575 E0.036239
G1 X70.172836 Y22.013336 E0.038242
G1 X67.824845 Y17.301903 E0.175084
G1 X67.357468 Y16.147314 E0.041429
G1 X66.905858 Y14.687573 E0.050822
G1 X66.310169 Y12.136073 E0.087145
G1 X66.051788 Y11.361485 E0.027158
G1 X65.559091 Y10.667207 E0.028316
G1 X64.716162 Y9.981204 E0.036147
G1 X63.453357 Y9.326554 E0.047309
G1 X62.245892 Y9.01309 E0.041492
G1 X61.595793 Y9.028977 E0.021629
G1 X61.053078 Y9.201353 E0.018939
G1 X60.882024 Y9.443974 E0.009874
G1 X60.878472 Y9.879754 E0.014495
G1 X61.189054 Y10.333595 E0.018291
G1 X62.35148 Y11.618388 E0.057627
G1 X62.743174 Y12.245566 E0.024594
G1 X65.449652 Y17.643488 E0.200839
G1 X68.047016 Y22.127872 E0.172363
G1 X68.625163 Y23.437728 E0.047621
G1 X68.753103 Y24.139669 E0.023731
G1 X68.676053 Y24.62535 E0.016356
G0 F3000 X73.13779 Y25.3746
G1 F1000 X73.015302 Y26.123792 E0.025249
G1 X73.12794 Y26.727778 E0.020435
G1 X73.338628 Y27.268003 E0.019286
G1 X74.630512 Y29.811458 E0.094883
G1 X75.676093 Y31.38324 E0.062788
G1 X76.963026 Y32.829362 E0.064386
G1 X78.301722 Y33.96024 E0.058286
G1 X79.682006 Y34.877049 E0.055113
G1 X80.129322 Y35.027786 E0.0157
G1 X80.593287 Y35.0649 E0.015481
G1 X87.621231 Y32.937252 E0.244227
G1 X89.173312 Y32.621331 E0.052681
G1 X90.037623 Y32.571522 E0.028795
G1 X92.154376 Y32.66714 E0.070475
G1 X93.511751 Y32.634224 E0.04516
G1 X98.257409 Y32.113123 E0.15879
G1 X108.345037 Y31.51992 E0.336095
G1 X116.234705 Y30.635837 E0.264054
G1 X123.361372 Y30.413861 E0.237149
G1 X125.539312 Y30.146072 E0.072984
G1 X130.449628 Y29.330696 E0.165554
G1 X134.733968 Y29.022043 E0.142867
G1 X136.686346 Y28.532629 E0.066946
G1 X139.210453 Y27.522567 E0.090424
G1 X141.021403 Y26.639658 E0.06701
G1 X146.770728 Y23.490069 E0.218037
G1 X147.592803 Y23.255706 E0.028432
G1 X148.339905 Y23.32665 E0.02496
G0 F3000 X155.641273 Y16.6833
G1 F1000 X155.050549 Y16.786814 E0.019947
G1 X154.45011 Y17.097457 E0.022485
G1 X151.611561 Y19.40802 E0.121734
G1 X150.173743 Y20.307665 E0.056412
G1 X149.141941 Y20.734617 E0.03714
G1 X146.343587 Y21.608598 E0.097507
G1 X145.268528 Y22.071745 E0.038934
G1 X138.932388 Y25.387625 E0.237855
G1 X136.779639 Y26.213673 E0.076691
G1 X134.91089 Y26.728819 E0.064473
G1 X133.617235 Y26.974303 E0.043795
G1 X127.210899 Y27.868481 E0.215141
G1 X123.522768 Y28.317389 E0.123573
G1 X116.160342 Y28.663772 E0.245146
G1 X110.237078 Y29.312617 E0.198187
G1 X102.491304 Y29.932997 E0.25845
G1 X97.581415 Y30.000624 E0.163319
G1 X96.168212 Y30.162452 E0.04731
G1 X92.959205 Y30.702064 E0.10823
G1 X92.295411 Y30.680166 E0.02209
G1 X91.728971 Y30.4695 E0.020101
G0 F3000 X92.914511 Y22.5774
G1 F1000 X91.946449 Y22.899039 E0.033929
G1 X90.219099 Y24.358617 E0.075216
G1 X88.343381 Y25.370444 E0.070885
G1 X87.210653 Y26.166282 E0.046044
G1 X86.67664 Y26.383735 E0.019177
G0 F3000 X84.965097 Y29.5704
G1 F1000 X88.02361 Y28.068003 E0.113337
G1 X89.7122 Y26.896646 E0.068353
G1 X90.065876 Y26.766675 E0.012532
G1 X90.530273 Y26.72325 E0.015513
G0 F3000 X88.43576 Y30.339365
G1 F1000 X87.846433 Y30.510494 E0.020411
G1 X86.03324 Y31.292837 E0.065681
G1 X83.567566 Y32.220956 E0.087626
G1 X82.67864 Y32.381616 E0.030045
G0 F3000 X85.61566 Y39.8601
G1 F1000 X85.84912 Y39.476847 E0.014926
G1 X86.151849 Y39.271341 E0.01217
G1 X86.603453 Y39.112644 E0.015921
G1 X87.460725 Y38.982763 E0.028838
G1 X95.695255 Y38.75742 E0.273984
G1 X97.087884 Y38.591313 E0.046647
G1 X100.226994 Y37.97357 E0.10641
G1 X102.431163 Y37.674467 E0.073983
G1 X103.530992 Y37.767744 E0.036712
G1 X103.868946 Y37.912001 E0.012222
G1 X104.14331 Y38.1618 E0.012341
G0 F3000 X100.084818 Y27.8721
G1 F1000 X100.690669 Y28.064189 E0.021139
G1 X101.625124 Y28.070433 E0.031081
G1 X106.109946 Y27.425479 E0.1507
G1 X110.403812 Y27.314184 E0.142863
G1 X115.455962 Y26.695842 E0.169289
G1 X121.81567 Y26.388951 E0.211771
G1 X124.665471 Y26.176078 E0.095049
G1 X132.538939 Y25.038981 E0.26459
G1 X134.738917 Y24.6274 E0.074441
G1 X136.398893 Y24.196811 E0.057038
G1 X137.87647 Y23.659425 E0.052294
G1 X139.367039 Y22.975967 E0.05454
G1 X142.512485 Y21.210418 E0.119972
G1 X144.335653 Y20.281977 E0.068049
G1 X149.186833 Y18.350835 E0.173665
G1 X151.02063 Y17.275425 E0.070707
G1 X153.543881 Y15.46594 E0.103273
G1 X155.492897 Y14.276498 E0.075943
G1 X156.264635 Y13.668474 E0.032678
G1 X157.380967 Y12.318199 E0.058271
G1 X158.942157 Y9.659411 E0.10255
G1 X159.254684 Y9.307385 E0.015657
G1 X159.607686 Y9.0909 E0.013773
G0 F3000 X159.670376 Y5.14485
G1 F1000 X159.188731 Y5.540101 E0.020723
G1 X158.201462 Y7.529996 E0.073882
G1 X155.84444 Y10.890122 E0.136512
G1 X155.249475 Y11.553686 E0.029643
G1 X154.262809 Y12.443553 E0.044192
G1 X152.165223 Y14.036124 E0.087596
G1 X150.253474 Y15.38706 E0.077859
G1 X148.669456 Y16.341055 E0.061502
G1 X147.69808 Y16.787332 E0.035555
G1 X143.583091 Y18.348715 E0.146386
G1 X141.626575 Y19.386026 E0.073654
G1 X138.848416 Y21.065963 E0.107982
G1 X137.259983 Y21.818282 E0.058457
G1 X135.418371 Y22.392407 E0.06416
G1 X132.4792 Y22.87229 E0.099052
G1 X129.774644 Y23.476512 E0.092171
G1 X125.348309 Y24.091581 E0.148635
G1 X118.771596 Y24.534089 E0.219237
G1 X114.734681 Y24.623123 E0.134301
G1 X110.431338 Y25.374923 E0.145298
G1 X109.63882 Y25.37209 E0.026359
G1 X109.06544 Y25.204302 E0.01987
G0 F3000 X117.010996 Y22.3776
G1 F1000 X117.513687 Y22.566752 E0.017864
G1 X118.160097 Y22.599155 E0.021527
G1 X120.983379 Y22.233924 E0.094685
G1 X124.117908 Y22.255709 E0.104257
G1 X125.169462 Y22.137125 E0.035197
G1 X127.073904 Y21.733315 E0.06475
G1 X129.516793 Y21.548474 E0.081483
G1 X130.081944 Y21.374882 E0.019664
G1 X130.504314 Y20.959909 E0.019694
G1 X130.496978 Y20.701104 E0.008611
G1 X130.212873 Y20.342338 E0.015221
G1 X129.427086 Y19.838794 E0.031041
G1 X128.067089 Y19.1649 E0.050482
G1 X127.25358 Y18.619783 E0.03257
G1 X125.198646 Y16.913785 E0.088831
G1 X122.217097 Y14.748534 E0.122558
G1 X120.014597 Y12.888917 E0.095875
G1 X119.242841 Y12.330799 E0.031678
G1 X117.39399 Y11.259985 E0.071062
G1 X112.561386 Y8.773148 E0.180766
G1 X108.420598 Y6.270035 E0.160931
G1 X103.346463 Y3.759248 E0.188297
G1 X99.602936 Y2.281235 E0.133863
G1 X98.025471 Y1.524917 E0.058185
G1 X96.995388 Y1.197608 E0.035949
G1 X94.333589 Y0.730198 E0.089886
G1 X93.838941 Y0.484562 E0.018369
G1 X93.475915 Y0.04995 E0.018835
G0 F3000 X110.020994
G1 F1000 X110.399513 Y0.507421 E0.019749
G1 X111.286952 Y0.82989 E0.031405
G1 X112.28015 Y0.970595 E0.033364
G1 X115.623579 Y1.121942 E0.111317
G1 X117.262204 Y1.310528 E0.054861
G1 X118.225422 Y1.559438 E0.033089
G1 X120.013064 Y2.249908 E0.063738
G1 X121.02197 Y2.53432 E0.034864
G1 X122.630195 Y2.831316 E0.054394
G1 X125.651505 Y3.236037 E0.101387
G1 X127.06243 Y3.544839 E0.048038
G1 X130.460456 Y4.681143 E0.11917
G1 X131.872331 Y5.288782 E0.051124
G1 X134.524508 Y6.857959 E0.102495
G1 X136.168652 Y7.593618 E0.059909
G1 X140.51506 Y9.082634 E0.15281
G1 X143.922549 Y10.416278 E0.121705
G1 X146.751034 Y11.181395 E0.097457
G1 X147.51908 Y11.49036 E0.027535
G1 X147.881188 Y11.777294 E0.015367
G1 X148.065236 Y12.111299 E0.012684
G1 X148.028685 Y12.391794 E0.009408
G1 X147.805799 Y12.67468 E0.011978
G1 X147.521505 Y12.886252 E0.011787
G1 X147.080153 Y13.047413 E0.015627
G1 X145.677029 Y13.2505 E0.047154
G1 X144.789025 Y13.191105 E0.029601
G1 X143.838424 Y12.940307 E0.032699
G1 X140.47344 Y11.543603 E0.121178
G1 X135.41075 Y9.578344 E0.180628
G1 X134.003702 Y8.918857 E0.051684
G1 X131.152912 Y7.211931 E0.110515
G1 X129.957865 Y6.685869 E0.043428
G1 X127.873546 Y5.938327 E0.073649
G1 X125.641225 Y5.33725 E0.076892
G1 X120.792968 Y4.453561 E0.16391
G1 X116.86923 Y3.531458 E0.134059
G1 X112.186878 Y2.946935 E0.156944
G1 X111.092182 Y2.73912 E0.03706
G1 X109.941211 Y2.348895 E0.040422
G1 X107.917042 Y1.382982 E0.074597
G1 X105.850069 Y0.729567 E0.072101
G1 X105.308686 Y0.400885 E0.021065
G1 X105.101093 Y0.04995 E0.013561
G0 F3000 X99.825633
G1 F1000 X100.096712 Y0.428802 E0.015494
G1 X100.405724 Y0.632233 E0.012305
G1 X103.173748 Y1.415363 E0.095679
G1 X105.516676 Y2.631941 E0.087805
G1 X108.551902 Y3.981583 E0.110482
G1 X110.539782 Y4.759478 E0.070999
G1 X111.828705 Y5.056407 E0.043993
G1 X116.22354 Y5.631733 E0.14742
G1 X125.880998 Y7.510302 E0.327229
G1 X127.901129 Y8.077761 E0.06979
G1 X129.637776 Y8.733981 E0.061747
G1 X131.303836 Y9.512781 E0.061169
G1 X131.705122 Y9.785172 E0.016131
G1 X131.934 Y10.09782 E0.012887
G0 F3000 X136.473805 Y17.73225
G1 F1000 X136.105964 Y18.06177 E0.016426
G1 X135.528781 Y18.208039 E0.019804
G1 X134.939896 Y18.164064 E0.019641
G1 X134.253536 Y17.93194 E0.024099
G1 X129.908228 Y15.543015 E0.164927
G1 X128.09085 Y14.312363 E0.073001
G1 X127.351687 Y13.63635 E0.033316
G0 F3000 X122.5143 Y12.0879
G1 F1000 X122.680732 Y12.558714 E0.016609
G1 X123.107323 Y13.021428 E0.020932
G1 X125.281368 Y14.440347 E0.086347
G1 X127.60994 Y16.360711 E0.100389
G1 X130.941069 Y18.466848 E0.131081
G1 X132.930253 Y20.09344 E0.085464
G1 X133.434121 Y20.335955 E0.018599
G1 X134.11211 Y20.470849 E0.022992
G1 X135.314961 Y20.412412 E0.040054
G1 X136.64543 Y19.978276 E0.046548
G1 X138.155259 Y19.150992 E0.057261
G1 X141.347667 Y17.051345 E0.127087
G1 X142.877632 Y16.230201 E0.057753
G1 X143.858108 Y15.83726 E0.035132
G1 X147.050409 Y14.936344 E0.110324
G1 X148.347574 Y14.29256 E0.048165
G1 X150.062143 Y12.980218 E0.071814
G1 X151.005118 Y12.375323 E0.037262
G1 X151.598298 Y11.860527 E0.026123
G1 X151.789198 Y11.573992 E0.011452
G1 X151.861993 Y11.241965 E0.011306
G1 X151.478132 Y10.703614 E0.021991
G1 X150.687087 Y10.301624 E0.029513
G1 X148.970766 Y9.68858 E0.060617
G1 X144.504579 Y8.386033 E0.154735
G1 X140.988388 Y6.886723 E0.127137
G1 X135.658511 Y5.255434 E0.18539
G1 X134.611516 Y4.733273 E0.038914
G1 X134.289697 Y4.432497 E0.014651
G1 X134.117932 Y4.0959 E0.012569
G0 F3000 X131.645326 Y3.04695
G1 F1000 X128.61431 Y1.711161 E0.110168
G1 X127.694905 Y1.398526 E0.032299
G1 X125.999184 Y1.128708 E0.057109
G1 X121.69722 Y0.825271 E0.143439
G1 X120.758489 Y0.568989 E0.032365
G1 X120.225759 Y0.04995 E0.024738
G0 F3000 X130.149379
G1 F1000 X130.413995 Y0.450491 E0.015967
G1 X130.854857 Y0.711467 E0.01704
G1 X131.653181 Y0.962602 E0.027835
G1 X132.737386 Y1.122182 E0.036449
G1 X134.347209 Y1.208107 E0.053619
G1 X140.839485 Y1.246517 E0.215938
G1 X142.910185 Y1.441361 E0.069176
G1 X144.023453 Y1.743082 E0.038363
G1 X146.200254 Y2.562128 E0.077356
G1 X147.87942 Y3.085965 E0.058504
G1 X148.626897 Y3.4965 E0.028364
G0 F3000 X151.474533 Y0.04995
G1 F1000 X151.783014 Y0.518862 E0.018668
G1 X152.248838 Y0.87301 E0.019463
G1 X152.907881 Y1.167192 E0.024005
G1 X153.523453 Y1.259867 E0.020705
G1 X154.053186 Y1.191624 E0.017765
G1 X154.477769 Y0.972684 E0.015889
G1 X154.813949 Y0.628928 E0.015992
G1 X155.090773 Y0.04995 E0.021345
G0 F3000 X145.727673
G1 F1000 X146.005892 Y0.374615 E0.014221
G1 X146.418559 Y0.645574 E0.01642
G1 X148.617455 Y1.157355 E0.07509
G1 X149.377059 Y1.419512 E0.026727
G1 X151.299977 Y2.567635 E0.074489
G1 X153.115566 Y3.298836 E0.0651
G1 X154.204337 Y3.95816 E0.042335
G1 X154.649677 Y4.061414 E0.015205
G1 X154.939865 Y4.007934 E0.009814
G1 X155.173883 Y3.837622 E0.009627
G1 X155.966201 Y2.686536 E0.046478
G1 X156.751021 Y1.284121 E0.053452
G1 X157.120863 Y0.04995 E0.042852
G0 F3000 X159.032889
G1 F1000 X158.635777 Y2.120245 E0.070114
G1 X158.172431 Y3.426202 E0.046089
G1 X154.778755 Y9.058308 E0.218703
G1 X154.334723 Y9.569524 E0.022521
G1 X154.010989 Y9.76833 E0.012636
G1 X153.505267 Y9.856975 E0.017077
G1 X153.182042 Y9.767384 E0.011156
G1 X152.197161 Y8.630957 E0.050017
G1 X151.635724 Y8.207069 E0.023398
G1 X151.149442 Y7.958953 E0.018157
G1 X149.934916 Y7.589576 E0.042222
G1 X145.427397 Y6.599386 E0.153495
G1 X144.687196 Y6.281325 E0.026796
G1 X144.136344 Y5.84415 E0.02339