; Time to print!!!!!
; GCode created with FullControl - tell us what you're printing!
; info@fullcontrol.xyz or tag FullControlXYZ on Twitter/Instagram/LinkedIn/Reddit/TikTok
M83 ; relative extrusion
M140 S60 ; set bed temp and continue
M104 S210 ; set hotend temp and continue
M190 S60 ; set bed temp and wait
M109 S210  ; set hotend temp and wait
M106 S255 ; set fan speed
G0 F3000 X6.57598 Y6.64335 Z0.4
G0 X8.009809 Y6.324881
G0 X9.575983 Y6.21244
G0 X11.266153 Y5.889343
G0 X13.307075 Y5.7806
G0 X14.986404 Y5.454814
G0 X16.845353 Y5.335792
G0 X17.986169 Y5.043698
G0 X19.282604 Y4.899529
G0 X20.177972 Y4.628881
G0 X21.425605 Y4.41935
G0 X23.973144 Y3.715573
G0 X25.126299 Y3.528111
G0 X25.516954 Y3.352144
G0 X25.824501 Y3.053517
G0 X25.498059 Y2.946333
G0 X24.610753 Y2.872925
G0 X20.51611 Y2.838695
G0 X17.024573 Y3.196864
G0 X14.289267 Y3.285095
G0 X11.096998 Y3.638295
G0 X8.855598 Y3.741302
G0 X6.880748 Y4.271411
G0 X5.541836 Y5.002263
G0 X5.115686 Y5.418942
G0 X4.944241 Y5.708272
G0 X4.89963 Y5.992165
G0 X5.138623 Y6.463337
G0 X5.674308 Y6.649823
G0 X6.57598 Y6.64335
G0 F3000 X16.692951 Y11.83815
G1 F1000 X18.702344 Y11.361152 E0.06869
G1 X22.274897 Y10.079627 E0.126237
G1 X24.237052 Y9.14356 E0.072308
G1 X24.694949 Y8.744285 E0.020206
G1 X24.746384 Y8.604249 E0.004962
G1 X24.512572 Y8.453779 E0.009248
G1 X24.130134 Y8.406551 E0.012817
G1 X22.236264 Y8.51748 E0.063098
G1 X21.178623 Y8.788129 E0.036311
G1 X19.860026 Y8.974993 E0.044295
G1 X16.586071 Y9.900604 E0.11316
G1 X15.797301 Y10.355683 E0.030288
G1 X15.616681 Y10.647436 E0.011413
G1 X15.580554 Y10.888735 E0.008115
G1 X15.722301 Y11.297871 E0.014401
G1 X15.932131 Y11.583219 E0.01178
G1 X16.208869 Y11.743707 E0.01064
G1 X16.692951 Y11.83815 E0.016404
G0 F3000 X23.102303 Y18.33165
G1 F1000 X23.710505 Y18.119973 E0.021419
G1 X26.609578 Y16.677919 E0.107694
G1 X28.207671 Y16.028332 E0.057376
G1 X28.61746 Y15.757214 E0.016343
G1 X28.856815 Y15.478513 E0.012219
G1 X28.947763 Y15.175693 E0.010516
G1 X28.91347 Y14.876772 E0.010007
G1 X28.353774 Y13.39622 E0.052645
G1 X27.499253 Y12.06401 E0.052641
G1 X26.917647 Y11.497069 E0.027014
G1 X26.259573 Y11.351674 E0.022415
G1 X25.196617 Y11.54096 E0.03591
G1 X21.531162 Y12.843547 E0.129383
G1 X19.376828 Y13.719262 E0.077347
G1 X18.273914 Y14.224354 E0.040347
G1 X17.973609 Y14.526815 E0.014176
G1 X17.934197 Y14.808826 E0.009471
G1 X18.21133 Y15.266114 E0.017785
G1 X21.195965 Y17.780094 E0.129792
G1 X22.03422 Y18.268135 E0.032262
G1 X23.102303 Y18.33165 E0.035587
G0 F3000 X33.013011 Y14.0859
G1 F1000 X33.562344 Y13.953697 E0.018793
G1 X37.170842 Y12.634259 E0.127791
G1 X39.691921 Y11.572896 E0.090979
G1 X40.509557 Y11.329525 E0.028374
G1 X41.630846 Y10.729914 E0.042292
G1 X42.520682 Y10.409508 E0.031456
G1 X47.534641 Y7.879592 E0.186791
G1 X49.011634 Y6.943266 E0.058164
G1 X49.206961 Y6.65569 E0.011563
G1 X49.21814 Y6.504805 E0.005032
G1 X48.687085 Y6.354457 E0.018357
G1 X47.830212 Y6.375347 E0.028508
G1 X46.326146 Y6.653566 E0.050874
G1 X44.606798 Y6.763751 E0.057303
G1 X43.430542 Y7.049859 E0.040263
G1 X41.516436 Y7.196224 E0.063849
G1 X40.419491 Y7.503156 E0.037886
G1 X39.067127 Y7.632766 E0.045186
G1 X38.182214 Y7.905446 E0.030798
G1 X36.979754 Y8.078768 E0.040407
G1 X36.214199 Y8.339946 E0.026903
G1 X35.1344 Y8.55105 E0.036594
G1 X30.925296 Y9.88416 E0.146849
G1 X30.44014 Y10.229973 E0.019816
G1 X30.316619 Y10.540564 E0.011117
G1 X30.413654 Y11.200368 E0.022181
G1 X30.788211 Y12.18618 E0.035075
G1 X31.354551 Y13.159012 E0.03744
G1 X31.877099 Y13.794869 E0.027374
G1 X32.365661 Y14.039382 E0.018171
G1 X33.013011 Y14.0859 E0.021586
G0 F3000 X65.357266 Y14.3856
G1 F1000 X65.543307 Y14.077531 E0.01197
G1 X65.522391 Y13.8306 E0.008242
G1 X64.760509 Y12.214339 E0.05943
G1 X63.79517 Y10.817497 E0.056474
G1 X63.51374 Y10.673373 E0.010516
G1 X63.236613 Y10.692867 E0.00924
G1 X63.142246 Y10.796006 E0.00465
G1 X63.172193 Y11.013115 E0.007289
G1 X63.807133 Y12.313329 E0.048126
G1 X64.866989 Y13.979735 E0.065685
G1 X65.138614 Y14.286374 E0.013625
G1 X65.357266 Y14.3856 E0.007986
G0 F3000 X71.463614 Y31.21875
G1 F1000 X71.648724 Y30.898017 E0.012317
G1 X71.684221 Y30.621749 E0.009264
G1 X71.372438 Y29.780082 E0.029853
G1 X66.315898 Y21.070007 E0.334978
G1 X65.014331 Y19.528761 E0.067096
G1 X63.87204 Y17.73668 E0.070684
G1 X63.047969 Y16.945824 E0.037989
G1 X62.292648 Y15.83309 E0.044731
G1 X61.509744 Y15.129085 E0.035019
G1 X60.771138 Y14.109696 E0.041869
G1 X60.091769 Y13.523636 E0.029842
G1 X59.509527 Y12.805823 E0.030741
G1 X58.352493 Y11.719034 E0.052797
G1 X57.430553 Y11.155697 E0.035935
G1 X56.612865 Y11.06051 E0.02738
G1 X55.733097 Y11.188391 E0.029569
G1 X53.889759 Y12.011293 E0.067142
G1 X52.048614 Y12.985868 E0.069287
G1 X51.096056 Y13.336754 E0.033763
G1 X49.93946 Y13.975165 E0.04394
G1 X48.35077 Y14.62731 E0.057119
G1 X44.538136 Y16.683407 E0.144073
G1 X40.868387 Y18.933849 E0.143179
G1 X40.058557 Y19.479429 E0.032477
G1 X39.256179 Y20.33642 E0.039047
G1 X39.312905 Y20.665623 E0.011111
G1 X39.532953 Y20.845119 E0.009445
G1 X40.227792 Y21.075792 E0.024351
G1 X42.686224 Y22.15731 E0.08933
G1 X43.437983 Y22.370695 E0.025991
G1 X47.597384 Y23.919715 E0.147624
G1 X52.845963 Y25.627049 E0.183572
G1 X55.163333 Y26.251169 E0.079822
G1 X57.19684 Y26.915381 E0.071151
G1 X58.150003 Y27.11638 E0.0324
G1 X60.28996 Y27.797715 E0.074696
G1 X61.144704 Y27.979577 E0.029065
G1 X61.784893 Y28.229398 E0.022857
G1 X65.432645 Y29.287256 E0.126324
G1 X70.799939 Y31.155508 E0.189022
G1 X71.463614 Y31.21875 E0.022174
G0 F3000 X80.564163 Y33.91605
G1 F1000 X81.021206 Y33.772084 E0.015938
G1 X81.596731 Y33.403523 E0.022731
G1 X82.133421 Y32.871902 E0.025125
G1 X82.992308 Y31.491252 E0.054081
G1 X83.932135 Y30.286753 E0.050814
G1 X84.559834 Y29.333623 E0.037958
G1 X87.082613 Y25.126898 E0.163147
G1 X88.534414 Y22.532445 E0.098883
G1 X91.880362 Y15.933422 E0.246086
G1 X92.13064 Y14.918227 E0.034776
G1 X92.538245 Y13.885347 E0.036932
G1 X92.773307 Y12.625735 E0.042618
G1 X92.77463 Y11.696013 E0.030923
G1 X92.649778 Y11.295611 E0.01395
G1 X91.343961 Y9.006519 E0.087652
G1 X90.913296 Y8.641325 E0.018781
G1 X90.314069 Y8.478991 E0.020649
G1 X88.047339 Y8.387478 E0.075453
G1 X86.167208 Y8.126245 E0.063134
G1 X84.728495 Y8.02884 E0.047961
G1 X76.921547 Y8.004727 E0.259661
G1 X74.871053 Y8.075186 E0.06824
G1 X72.777656 Y8.37236 E0.070325
G1 X70.396913 Y8.475332 E0.079258
G1 X69.664106 Y8.647289 E0.025035
G1 X69.149454 Y8.934957 E0.01961
G1 X68.839668 Y9.289152 E0.015651
G1 X68.022838 Y10.682098 E0.053708
G1 X67.799216 Y11.298061 E0.021795
G1 X67.816363 Y13.015425 E0.057123
G1 X68.091197 Y13.829501 E0.028578
G1 X68.25854 Y14.72273 E0.030226
G1 X68.618224 Y15.599992 E0.031535
G1 X68.863612 Y16.678738 E0.036796
G1 X69.545412 Y18.01366 E0.049855
G1 X70.280956 Y19.880063 E0.066724
G1 X70.979724 Y21.261741 E0.051498
G1 X74.492841 Y27.357261 E0.234
G1 X76.303556 Y30.337814 E0.115993
G1 X77.325017 Y31.517336 E0.051897
G1 X78.238174 Y32.930183 E0.055952
G1 X78.591433 Y33.319575 E0.017487
G1 X79.49699 Y33.835418 E0.034663
G1 X80.564163 Y33.91605 E0.035595
G0 F3000 X89.459017 Y31.1688
G1 F1000 X93.377619 Y29.740101 E0.138726
G1 X97.38295 Y28.443621 E0.140023
G1 X98.304596 Y28.232348 E0.031449
G1 X100.432526 Y27.548278 E0.074342
G1 X101.288771 Y27.366665 E0.029112
G1 X103.428053 Y26.685095 E0.074677
G1 X104.380295 Y26.483968 E0.03237
G1 X106.411346 Y25.818558 E0.071086
G1 X108.716139 Y25.190941 E0.079449
G1 X113.892647 Y23.461299 E0.181528
G1 X116.352013 Y22.58069 E0.086884
G1 X120.599639 Y20.86034 E0.152424
G1 X121.035834 Y20.498783 E0.018844
G1 X121.105248 Y20.324979 E0.006225
G1 X121.071982 Y20.098311 E0.00762
G1 X120.828892 Y19.777103 E0.013398
G1 X119.778231 Y19.106961 E0.041448
G1 X118.442009 Y18.074758 E0.056159
G1 X113.20574 Y15.064541 E0.200887
G1 X111.640508 Y14.405708 E0.056484
G1 X110.429522 Y13.733906 E0.04606
G1 X108.903286 Y13.113069 E0.054802
G1 X107.671529 Y12.448174 E0.046556
G1 X106.78417 Y12.126548 E0.031393
G1 X104.25865 Y10.766997 E0.095397
G1 X103.634127 Y10.655114 E0.021102
G1 X103.088421 Y10.746284 E0.018402
G1 X102.337738 Y11.159747 E0.028504
G1 X101.773028 Y11.733556 E0.026777
G1 X101.250329 Y12.11937 E0.021608
G1 X100.642728 Y12.82932 E0.03108
G1 X99.992373 Y13.37471 E0.02823
G1 X99.3189 Y14.263751 E0.037096
G1 X98.720187 Y14.725248 E0.025142
G1 X97.907863 Y15.870645 E0.046704
G1 X97.120142 Y16.573225 E0.035107
G1 X96.0521 Y18.237916 E0.065784
G1 X94.758 Y19.781899 E0.067006
G1 X88.922972 Y29.897198 E0.388399
G1 X88.723575 Y30.473158 E0.020272
G1 X88.771363 Y30.890627 E0.013976
G1 X88.986284 Y31.11435 E0.010318
G1 X89.459017 Y31.1688 E0.015827
G0 F3000 X97.5512 Y39.910114
G1 F1000 X62.337856 Y39.885041 E1.171201
G1 X61.909521 Y39.778285 E0.014682
G1 X61.317577 Y39.413512 E0.023126
G1 X60.932288 Y39.283851 E0.013521
G1 X59.624705 Y39.095458 E0.043939
G1 X58.716646 Y38.825885 E0.031505
G1 X57.575353 Y38.685061 E0.038247
G1 X56.554246 Y38.354461 E0.035698
G1 X55.430618 Y38.205574 E0.037699
G1 X54.448691 Y37.913414 E0.034074
G1 X53.313864 Y37.768843 E0.03805
G1 X52.551074 Y37.505647 E0.026838
G1 X51.212621 Y37.32612 E0.044916
G1 X50.330749 Y37.051489 E0.030721
G1 X49.074041 Y36.895065 E0.042121
G1 X48.191761 Y36.621831 E0.03072
G1 X46.9326 Y36.465346 E0.042202
G1 X45.942859 Y36.174331 E0.034312
G1 X44.785173 Y36.03847 E0.038769
G1 X43.804031 Y35.744267 E0.034068
G1 X42.633503 Y35.609364 E0.03919
G1 X41.8045 Y35.320445 E0.029199
G1 X40.546711 Y35.162915 E0.042161
G1 X39.662561 Y34.888283 E0.030793
G1 X38.567746 Y34.732853 E0.036779
G1 X37.72253 Y34.446682 E0.02968
G1 X36.477367 Y34.28676 E0.041754
G1 X35.696532 Y34.029923 E0.02734
G1 X34.782477 Y33.866059 E0.030886
G1 X34.009748 Y33.6073 E0.027104
G1 X31.500822 Y32.992902 E0.085913
G1 X30.858658 Y32.744091 E0.022906
G1 X29.793687 Y32.527507 E0.036146
G1 X24.724507 Y30.764209 E0.178511
G1 X23.530778 Y30.187142 E0.044099
G1 X22.648153 Y29.913941 E0.03073
G1 X21.479511 Y29.279669 E0.044225
G1 X19.891098 Y28.62751 E0.05711
G1 X13.145222 Y24.740907 E0.258944
G1 X10.622224 Y22.980952 E0.102315
G1 X8.854186 Y21.635056 E0.073905
G1 X7.381718 Y20.296287 E0.066191
G1 X6.848907 Y19.91422 E0.021807
G1 X6.30259 Y19.285111 E0.027713
G1 X5.623199 Y18.698498 E0.029854
G1 X5.046505 Y17.97885 E0.030673
G1 X4.306615 Y17.311435 E0.033142
G1 X3.36294 Y15.907149 E0.056273
G1 X2.336833 Y14.729646 E0.051948
G1 X1.530377 Y13.333115 E0.053637
G1 X1.234567 Y12.628461 E0.025418
G1 X1.083117 Y12.023549 E0.02074
G1 X0.589535 Y10.979685 E0.038405
G1 X-0.003689 Y10.17914 E0.03314
G1 X-0.078488 Y8.84115 E0.044571
G1 X-0.050726 Y0.158981 E0.288772
G1 X0.255579 Y0.004903 E0.011404
G1 X1.27969 Y-0.024872 E0.034076
G1 X158.48039 E5.228516
G1 X159.685114 Y0.04839 E0.040143
G1 X159.810806 Y0.158981 E0.005568
G1 X159.83971 Y0.399703 E0.008064
G1 X159.791127 Y10.088953 E0.32227
G1 X159.727638 Y10.362447 E0.009338
G1 X159.408613 Y10.752971 E0.016772
G1 X159.097623 Y11.354964 E0.022536
G1 X158.733365 Y12.537733 E0.041162
G1 X158.361035 Y13.324915 E0.028963
G1 X157.203758 Y15.26111 E0.075025
G1 X156.296354 Y16.225471 E0.044041
G1 X155.414975 Y17.499779 E0.051534
G1 X154.716273 Y18.129645 E0.031288
G1 X154.05232 Y18.921788 E0.034378
G1 X150.937438 Y21.695336 E0.138719
G1 X146.668638 Y24.757293 E0.174729
G1 X139.92708 Y28.59646 E0.258035
G1 X139.121674 Y28.892618 E0.028542
G1 X137.848054 Y29.544787 E0.047591
G1 X135.876987 Y30.378201 E0.071177
G1 X135.125887 Y30.591997 E0.025974
G1 X132.31731 Y31.663446 E0.09998
G1 X130.19805 Y32.299118 E0.073589
G1 X129.576997 Y32.556486 E0.02236
G1 X127.098347 Y33.179017 E0.085001
G1 X126.422686 Y33.419149 E0.02385
G1 X125.407327 Y33.60002 E0.034303
G1 X124.639954 Y33.860221 E0.02695
G1 X123.584068 Y34.029776 E0.035569
G1 X122.695933 Y34.302988 E0.030906
G1 X121.585894 Y34.455033 E0.037265
G1 X120.734781 Y34.740354 E0.029856
G1 X119.6185 Y34.889635 E0.037458
G1 X118.628749 Y35.180528 E0.034312
G1 X117.505744 Y35.328418 E0.037674
G1 X116.762679 Y35.596231 E0.026271
G1 X115.516954 Y35.756325 E0.041774
G1 X114.628611 Y36.029464 E0.030912
G1 X113.439717 Y36.204994 E0.039971
G1 X112.676607 Y36.467536 E0.026841
G1 X111.291673 Y36.634054 E0.046395
G1 X110.532168 Y36.896846 E0.026731
G1 X109.304967 Y37.062387 E0.041187
G1 X108.414787 Y37.334194 E0.030957
G1 X107.234085 Y37.514463 E0.039725
G1 X106.563837 Y37.754679 E0.023681
G1 X105.363251 Y37.929122 E0.040351
G1 X104.410029 Y38.232616 E0.033272
G1 X103.313774 Y38.38657 E0.036819
G1 X102.305263 Y38.722928 E0.03536
G1 X98.657241 Y39.431456 E0.123601
G1 X97.5512 Y39.910114 E0.040084
G0 F3000 X127.166332 Y13.53645
G1 F1000 X127.574599 Y13.298634 E0.015715
G1 X127.90195 Y12.901091 E0.017128
G1 X129.190571 Y10.406715 E0.09338
G1 X129.312034 Y10.039396 E0.012868
G1 X129.3049 Y9.792248 E0.008224
G1 X129.163524 Y9.530026 E0.009908
G1 X128.911357 Y9.360216 E0.010112
G1 X127.730517 Y8.980373 E0.041257
G1 X124.476141 Y8.347618 E0.110268
G1 X123.590092 Y8.074646 E0.030837
G1 X122.442893 Y7.933667 E0.038443
G1 X121.458246 Y7.642554 E0.034151
G1 X120.03403 Y7.488221 E0.047647
G1 X118.84186 Y7.21056 E0.040713
G1 X117.372084 Y7.071376 E0.049104
G1 X116.247244 Y6.772323 E0.038712
G1 X114.307517 Y6.629707 E0.06469
G1 X112.866382 Y6.331792 E0.048946
G1 X111.937119 Y6.366938 E0.030929
G1 X111.522753 Y6.503131 E0.014507
G1 X111.820331 Y6.956835 E0.018047
G1 X113.315813 Y7.888279 E0.058599
G1 X117.602847 Y10.046462 E0.159636
G1 X118.391592 Y10.298487 E0.02754
G1 X119.620004 Y10.914268 E0.045703
G1 X120.367394 Y11.129514 E0.025869
G1 X125.426244 Y13.097157 E0.180537
G1 X126.602865 Y13.475018 E0.041103
G1 X127.166332 Y13.53645 E0.018852
G0 F3000 X137.96764 Y17.8821
G1 F1000 X139.019417 Y17.323483 E0.03961
G1 X141.682696 Y15.057838 E0.116297
G1 X142.208257 Y14.274892 E0.031364
G1 X142.238867 Y13.939678 E0.011196
G1 X142.135276 Y13.721179 E0.008043
G1 X141.628773 Y13.380563 E0.020301
G1 X139.62559 Y12.55731 E0.072033
G1 X136.036592 Y11.13081 E0.128454
G1 X133.619877 Y10.287351 E0.085135
G1 X132.595381 Y10.110511 E0.034579
G1 X132.137899 Y10.17952 E0.015388
G1 X131.778567 Y10.365219 E0.013453
G1 X131.469977 Y10.719031 E0.015615
G1 X130.790422 Y11.855432 E0.044039
G1 X130.0007 Y13.40539 E0.057858
G1 X129.835805 Y14.13259 E0.024801
G1 X130.039217 Y14.602915 E0.017043
G1 X130.421327 Y14.883657 E0.01577
G1 X134.925283 Y16.772857 E0.162447
G1 X136.495371 Y17.581711 E0.058744
G1 X137.274574 Y17.835349 E0.027255
G1 X137.96764 Y17.8821 E0.023104
G0 F3000 X145.779191 Y5.7942
G1 F1000 X146.186442 Y5.625313 E0.014664
G1 X146.443092 Y5.30722 E0.013594
G1 X146.71611 Y3.995369 E0.044567
G1 X146.691342 Y3.705027 E0.009692
G1 X146.562888 Y3.497496 E0.008118
G1 X146.072113 Y3.299709 E0.017599
G1 X140.928032 Y2.861109 E0.171714
G1 X139.450022 Y2.813966 E0.049184
G1 X133.216956 Y2.870473 E0.207321
G1 X132.143382 Y2.987022 E0.035917
G1 X131.945129 Y3.076168 E0.00723
G1 X131.874481 Y3.2006 E0.004759
G1 X131.96119 Y3.415137 E0.007696
G1 X132.226016 Y3.53126 E0.009618
G1 X133.253303 Y3.708343 E0.034672
G1 X136.213409 Y4.433227 E0.101363
G1 X137.496237 Y4.630575 E0.043169
G1 X138.411051 Y4.895136 E0.031674
G1 X139.833418 Y5.051879 E0.047594
G1 X141.088297 Y5.357323 E0.042956
G1 X142.887964 Y5.494518 E0.060031
G1 X144.231964 Y5.774694 E0.045663
G1 X145.779191 Y5.7942 E0.051465
G0 F3000 X154.359233 Y6.993
G1 F1000 X154.675745 Y6.678632 E0.014837
G1 X154.867227 Y6.290084 E0.014407
G1 X154.905079 Y5.994227 E0.00992
G1 X154.768299 Y5.579495 E0.014525
G1 X154.381073 Y5.101244 E0.020467
G1 X152.995509 Y4.285689 E0.053475
G1 X151.316564 Y3.760414 E0.058511
G1 X149.451431 Y3.570358 E0.062356
G1 X148.750774 Y3.678252 E0.023579
G1 X148.405022 Y4.020345 E0.016177
G1 X148.274504 Y4.392894 E0.013129
G1 X148.127379 Y5.493705 E0.036939
G1 X148.268304 Y5.811154 E0.011552
G1 X148.62507 Y6.100681 E0.015282
G1 X149.048179 Y6.217742 E0.014601
G1 X150.497139 Y6.363776 E0.048437
G1 X151.611965 Y6.617053 E0.038024
G1 X153.017774 Y6.776605 E0.047058
G1 X153.808663 Y6.972743 E0.027102
G1 X154.359233 Y6.993 E0.018324
G0 F3000 X4.750836 Y0.04995
G1 F1000 X4.97684 Y0.569485 E0.018844
G1 X5.348715 Y0.951849 E0.01774
G1 X5.853913 Y1.195151 E0.01865
G1 X6.393765 Y1.25818 E0.018078
G1 X7.243532 Y1.139111 E0.028539
G1 X8.433996 Y0.761085 E0.041543
G1 X8.955791 Y0.474547 E0.0198
G1 X9.316082 Y0.04995 E0.018521
G0 F3000 X15.095015
G1 F1000 X14.759314 Y0.489587 E0.018398
G1 X14.176196 Y0.806826 E0.022079
G1 X12.260998 Y1.357329 E0.066279
G1 X9.620391 Y2.48087 E0.095446
G1 X7.06281 Y3.179981 E0.088186
G1 X5.636847 Y3.830451 E0.052129
G1 X5.284814 Y3.904122 E0.011962
G1 X4.94652 Y3.822168 E0.011577
G1 X4.627177 Y3.626153 E0.012463
G1 X3.922189 Y2.69613 E0.038815
G1 X3.038842 Y1.224431 E0.057089
G1 X2.668898 Y0.04995 E0.040955
G0 F3000 X0.740791
G1 F1000 X1.160507 Y2.104465 E0.069745
G1 X1.696606 Y3.341512 E0.044842
G1 X4.408486 Y7.689167 E0.170428
G1 X4.990771 Y8.456417 E0.032036
G1 X5.388757 Y8.781426 E0.01709
G1 X5.913573 Y8.917041 E0.018029
G1 X6.386066 Y8.812317 E0.016097
G1 X8.056541 Y7.686167 E0.067007
G1 X11.010215 Y6.610855 E0.104547
G1 X11.358847 Y6.370151 E0.014091
G1 X11.682231 Y5.94405 E0.017792
G0 F3000 X14.147168 Y3.1968
G1 F1000 X14.515411 Y2.760252 E0.018996
G1 X15.127676 Y2.402142 E0.023592
G1 X16.755881 Y1.76166 E0.058194
G1 X18.06304 Y1.420908 E0.044929
G1 X19.744656 Y1.259088 E0.056189
G1 X25.912656 Y1.181238 E0.205165
G1 X29.38994 Y0.964778 E0.115879
G1 X30.149453 Y0.850401 E0.025546
G1 X30.886035 Y0.631751 E0.025555
G1 X31.330046 Y0.369173 E0.017157
G1 X31.534339 Y0.04995 E0.012606
G0 F3000 X39.98 Y0.048107
G1 F1000 X39.732002 Y0.398836 E0.014287
G1 X39.0181 Y0.723726 E0.026088
G1 X38.114281 Y0.89178 E0.030576
G1 X35.330696 Y1.119798 E0.092893
G1 X34.066664 Y1.324217 E0.042588
G1 X33.278036 Y1.577991 E0.027554
G1 X31.014202 Y2.519462 E0.081547
G1 X27.233257 Y3.486012 E0.129799
G1 X24.918272 Y4.461312 E0.083551
G1 X23.360754 Y4.97381 E0.054536
G1 X21.525865 Y5.449752 E0.063048
G1 X15.671945 Y6.718281 E0.199221
G1 X14.53147 Y7.060724 E0.039605
G1 X13.345577 Y7.589894 E0.043192
G1 X11.31572 Y8.654313 E0.076233
G1 X9.340117 Y9.485774 E0.071291
G1 X8.600354 Y9.953101 E0.029103
G1 X8.236155 Y10.493391 E0.021672
G1 X8.264079 Y10.783467 E0.009693
G1 X8.414568 Y11.08032 E0.01107
G1 X9.002798 Y11.499339 E0.024021
G1 X9.953935 Y11.666377 E0.032119
G1 X10.801614 Y11.491426 E0.028788
G1 X12.588786 Y10.35052 E0.070521
G1 X13.541088 Y9.848858 E0.0358
G1 X14.901506 Y9.274806 E0.049111
G1 X16.349601 Y8.778273 E0.050917
G1 X18.352252 Y8.254488 E0.068849
G1 X23.407679 Y7.136676 E0.172205
G1 X28.507296 Y5.282162 E0.180481
G1 X34.316857 Y3.500427 E0.20211
G1 X35.900473 Y3.146195 E0.053973
G1 X39.179622 Y2.572606 E0.110721
G1 X42.725328 Y1.331889 E0.124942
G1 X45.999827 Y0.806335 E0.110304
G1 X46.662265 Y0.514744 E0.024073
G1 X47.034304 Y0.04995 E0.019802
G0 F3000 X48.884276 Y6.24375
G1 F1000 X49.338159 Y5.895005 E0.019038
G1 X50.097841 Y5.48291 E0.028745
G1 X56.261281 Y2.513035 E0.227554
G1 X58.1406 Y1.501247 E0.07099
G1 X61.016011 Y0.651418 E0.099726
G1 X61.421073 Y0.376707 E0.016278
G1 X61.631098 Y0.04995 E0.012919
G0 F3000 X67.472024
G1 F1000 X67.200447 Y0.433595 E0.015634
G1 X66.749927 Y0.694276 E0.017312
G1 X63.614463 Y1.412773 E0.106989
G1 X61.445346 Y2.483822 E0.080461
G1 X58.985817 Y3.413873 E0.087458
G1 X57.265146 Y4.175026 E0.062579
G1 X54.118649 Y5.739672 E0.116878
G1 X50.767062 Y7.640016 E0.128146
G1 X49.207394 Y8.800806 E0.064665
G1 X47.099309 Y11.040028 E0.102289
G1 X46.001555 Y11.945951 E0.047339
G1 X40.911579 Y15.100833 E0.199176
G1 X35.111697 Y19.383088 E0.239788
G1 X34.632406 Y19.987309 E0.025651
G1 X34.556657 Y20.199062 E0.00748
G1 X34.58385 Y20.396312 E0.006623
G1 X34.714082 Y20.601638 E0.008087
G1 X34.930936 Y20.732832 E0.00843
G1 X35.661225 Y20.830868 E0.024507
G1 X36.698496 Y20.678434 E0.03487
G1 X37.859858 Y20.142098 E0.042547
G1 X39.52638 Y18.614388 E0.075194
G1 X40.92059 Y17.601453 E0.057318
G1 X43.286311 Y16.042609 E0.09423
G1 X46.042062 Y14.45607 E0.105761
G1 X47.274172 Y13.642065 E0.049116
G1 X48.325141 Y12.720583 E0.046489
G1 X50.074732 Y10.870754 E0.084686
G1 X51.275113 Y9.896243 E0.051425
G1 X52.704562 Y8.944478 E0.057118
G1 X56.440803 Y6.764953 E0.143866
G1 X58.557835 Y5.72788 E0.078407
G1 X64.114694 Y3.516944 E0.198914
G1 X67.306325 Y2.415978 E0.112292
G1 X69.440424 Y1.484143 E0.077452
G1 X70.825088 Y1.168081 E0.047239
G1 X74.598874 Y0.798203 E0.126118
G1 X75.443893 Y0.462362 E0.030244
G1 X75.758305 Y0.04995 E0.017248
G0 F3000 X78.735002 Y7.94205
G1 F1000 X79.104824 Y7.500795 E0.019149
G1 X79.986261 Y7.125569 E0.031863
G1 X83.674895 Y6.480118 E0.124549
G1 X86.52499 Y5.471818 E0.100552
G1 X93.089381 Y3.676053 E0.226355
G1 X94.598872 Y3.398549 E0.051047
G1 X95.947769 Y3.269399 E0.04507
G1 X100.269623 Y3.115928 E0.143836
G1 X103.090929 Y3.238834 E0.093926
G1 X104.790163 Y3.507802 E0.05722
G1 X107.951589 Y4.419122 E0.109431
G1 X109.815839 Y4.785733 E0.063193
G1 X112.637904 Y5.153008 E0.094654
G1 X115.680421 Y5.346309 E0.101399
G1 X117.610441 Y5.290652 E0.064219
G1 X121.113435 Y4.941582 E0.117087
G1 X126.336565 Y5.070371 E0.173775
G1 X129.847951 Y4.922043 E0.116893
G1 X133.632481 Y4.652016 E0.126194
G1 X134.249842 Y4.495356 E0.021184
G1 X134.697038 Y4.1958 E0.017902
G0 F3000 X131.61416 Y3.061127
G1 F1000 X131.167886 Y2.962946 E0.015198
G1 X130.340316 Y2.935256 E0.02754
G1 X126.49671 Y3.036142 E0.127883
G1 X121.073986 Y2.985816 E0.180368
G1 X115.879064 Y3.144095 E0.172864
G1 X113.759345 Y3.102333 E0.070516
G1 X110.672847 Y2.921437 E0.102833
G1 X108.864347 Y2.685377 E0.060661
G1 X107.825591 Y2.360067 E0.036204
G1 X106.125057 Y1.492828 E0.06349
G1 X105.350711 Y1.285001 E0.026666
G1 X104.467001 Y1.162483 E0.029673
G1 X101.95973 Y1.050923 E0.083475
G1 X98.888551 Y1.046213 E0.102148
G1 X95.581896 Y1.109342 E0.11
G1 X93.723404 Y1.277184 E0.062065
G1 X92.661683 Y1.544835 E0.036418
G1 X89.751041 Y2.633354 E0.103357
G1 X86.26265 Y3.442182 E0.119102
G1 X82.774201 Y4.550126 E0.121738
G1 X79.42167 Y5.301229 E0.11427
G1 X75.774919 Y6.61038 E0.12887
G1 X74.654257 Y6.859083 E0.03818
G1 X70.6327 Y7.501155 E0.135452
G1 X69.58357 Y7.772835 E0.036045
G1 X68.67151 Y8.137366 E0.032668
G1 X65.494055 Y9.892084 E0.120727
G1 X65.130324 Y10.177178 E0.015371
G1 X64.99788 Y10.441231 E0.009825
G1 X65.075225 Y10.869805 E0.014485
G1 X65.58898 Y11.456803 E0.025945
G1 X66.965049 Y12.875751 E0.065742
G1 X67.64616 Y13.259776 E0.026007
G0 F3000 X65.546134 Y14.3856
G1 F1000 X66.626522 Y15.578906 E0.05354
G1 X67.296544 Y16.517566 E0.038358
G1 X70.019021 Y21.612565 E0.192136
G1 X71.374914 Y23.885117 E0.088017
G1 X71.794617 Y24.454351 E0.023523
G1 X72.183531 Y24.832768 E0.018048
G1 X72.575729 Y25.056841 E0.015023
G1 X72.992155 Y25.1748 E0.014395
G0 F3000 X85.87704 Y8.01159
G1 F1000 X86.278888 Y7.642872 E0.018139
G1 X86.662943 Y7.463423 E0.014099
G1 X89.04723 Y6.959685 E0.081052
G1 X91.343979 Y6.177886 E0.080694
G1 X92.469243 Y5.879604 E0.038719
G1 X94.906112 Y5.489369 E0.082083
G1 X98.389374 Y5.233612 E0.116166
G1 X100.748723 Y5.165002 E0.078505
G1 X102.679886 Y5.266469 E0.064319
G1 X104.532556 Y5.58653 E0.062533
G1 X109.280552 Y6.701084 E0.162212
G1 X110.538662 Y6.861547 E0.042184
G1 X111.507995 Y6.7932 E0.03232
G0 F3000 X90.948385 Y8.4915
G1 F1000 X91.292576 Y8.259171 E0.013812
G1 X91.962545 Y8.019312 E0.023668
G1 X94.054588 Y7.674874 E0.070518
G1 X100.369564 Y7.197631 E0.210636
G1 X102.184048 Y7.22034 E0.060355
G1 X103.970984 Y7.510195 E0.060211
G1 X108.089255 Y8.522014 E0.141048
G1 X112.545534 Y9.177342 E0.149811
G1 X113.826053 Y9.576991 E0.044616
G1 X116.617644 Y10.65303 E0.099508
G1 X117.689422 Y10.967721 E0.037152
G1 X118.608777 Y11.07211 E0.030774
G1 X119.30032 Y10.93787 E0.02343
G0 F3000 X119.701758 Y7.2927
G1 F1000 X120.352762 Y6.948166 E0.024498
G1 X121.105003 Y6.842222 E0.025267
G1 X122.188957 Y6.86696 E0.036062
G1 X125.055432 Y7.168776 E0.095866
G1 X126.490734 Y7.221305 E0.04777
G1 X129.937819 Y6.894905 E0.115163
G1 X132.785111 Y6.732327 E0.094856
G1 X134.128495 Y6.554408 E0.045071
G1 X136.685524 Y6.054441 E0.086658
G1 X139.875613 Y5.901501 E0.106225
G1 X140.499501 Y5.74775 E0.021371
G1 X141.04944 Y5.425303 E0.021203
G0 F3000 X146.438397 Y3.24675
G1 F1000 X147.390283 Y3.004071 E0.032673
G1 X149.140634 Y2.854529 E0.058429
G1 X150.591915 Y2.843391 E0.048271
G1 X151.818077 Y2.953874 E0.040948
G1 X152.42253 Y3.115999 E0.020815
G1 X153.02907 Y3.42341 E0.022617
G1 X153.231731 Y3.851669 E0.015758
G1 X153.195629 Y4.24575 E0.013162
G0 F3000 X159.60016 Y3.877907
G1 F1000 X159.117598 Y3.524282 E0.019898
G1 X158.909309 Y2.893871 E0.022082
G1 X158.814197 Y1.998 E0.029964
G1 X158.827399 Y0.04995 E0.064794
G0 F3000 X156.989978
G1 F1000 X156.869882 Y2.196251 E0.071498
G1 X157.011424 Y3.18688 E0.033283
G1 X157.306647 Y3.837779 E0.023772
G1 X158.335993 Y4.86386 E0.048341
G1 X158.597359 Y5.593096 E0.025765
G1 X158.729814 Y7.4925 E0.063328
G1 X158.7105 Y9.94005 E0.081408
G1 X158.799086 Y10.674438 E0.024603
G1 X158.997545 Y11.03895 E0.013804
G0 F3000 X150.00496 Y22.180539
G1 F1000 X150.034639 Y21.614712 E0.018845
G1 X150.555977 Y20.776585 E0.032829
G1 X153.496306 Y17.698714 E0.141576
G1 X155.310693 Y15.418629 E0.096917
G1 X156.112467 Y14.121521 E0.050719
G1 X156.638038 Y12.686484 E0.05083
G1 X156.773005 Y11.688265 E0.033503
G1 X156.764659 Y10.33965 E0.044856
G1 X156.550743 Y6.836309 E0.116739
G1 X156.433768 Y5.951667 E0.029679
G1 X156.084175 Y5.219159 E0.026996
G1 X154.610398 Y3.678476 E0.070913
G1 X154.326038 Y3.047382 E0.023023
G1 X154.392433 Y2.448447 E0.020043
G1 X154.951144 Y0.919496 E0.054142
G1 X155.139389 Y0.04995 E0.029591
G0 F3000 X153.09711
G1 F1000 X152.96508 Y0.398253 E0.012389
G1 X152.718107 Y0.67293 E0.012286
G1 X152.32817 Y0.849704 E0.01424
G1 X151.824454 Y0.940009 E0.017021
G1 X147.324447 Y0.986713 E0.149679
G1 X142.271424 Y1.257098 E0.168305
G1 X140.739442 Y1.426343 E0.051264
G1 X139.989321 Y1.641472 E0.025955
G1 X139.466249 Y1.928109 E0.019838
G1 X139.125272 Y2.271713 E0.0161
G1 X138.907132 Y2.74725 E0.017401
G0 F3000 X138.768696 Y0.04995
G1 F1000 X138.510426 Y0.581584 E0.019658
G1 X137.989584 Y0.917427 E0.020612
G1 X137.078394 Y1.132249 E0.031137
G1 X135.783893 Y1.205091 E0.043123
G1 X130.012116 Y0.984114 E0.192111
G1 X116.158905 Y1.050207 E0.460765
G1 X109.913154 Y0.951979 E0.20776
G1 X108.921809 Y0.869393 E0.033086
G1 X108.292787 Y0.716528 E0.02153
G1 X107.851283 Y0.405161 E0.017969
G1 X107.699545 Y0.04995 E0.012847
G0 F3000 X108.740847 Y12.83715
G1 F1000 X109.52663 Y12.725153 E0.026399
G1 X110.485166 Y12.867531 E0.032231
G1 X111.911955 Y13.321729 E0.049802
G1 X114.446741 Y14.278329 E0.090111
G1 X115.669701 Y14.595395 E0.042021
G1 X118.553935 Y14.992797 E0.096836
G1 X122.228367 Y15.693704 E0.124416
G1 X127.559384 Y16.526203 E0.179459
G1 X131.866625 Y17.029145 E0.144233
G1 X133.131789 Y17.38315 E0.043696
G1 X135.235986 Y18.222954 E0.075354
G1 X136.182525 Y18.232019 E0.031483
G1 X136.559038 Y18.105112 E0.013215
G1 X136.833164 Y17.8821 E0.011754
G0 F3000 X139.697636 Y28.5714
G1 F1000 X139.974047 Y27.807639 E0.027015
G1 X140.698257 Y27.088392 E0.033948
G1 X144.977426 Y24.228723 E0.171181
G1 X146.713181 Y22.772815 E0.075351
G1 X147.601938 Y21.701893 E0.046287
G1 X149.102423 Y19.623359 E0.085264
G1 X151.21143 Y17.235135 E0.105972
G1 X152.634804 Y15.481776 E0.075114
G1 X153.840109 Y13.660371 E0.072643
G1 X154.462902 Y12.25263 E0.051199
G1 X154.66544 Y11.282406 E0.032965
G1 X154.782468 Y10.03995 E0.041507
G1 X154.762003 Y9.340692 E0.023267
G1 X154.595088 Y8.830189 E0.017864
G1 X154.247992 Y8.439532 E0.017381
G1 X153.593763 Y8.094654 E0.024598
G1 X151.649879 Y7.602257 E0.066696
G1 X148.562415 Y7.218842 E0.103478
G1 X144.743165 Y7.093186 E0.127098
G1 X143.019746 Y7.234993 E0.057515
G1 X140.002109 Y7.839726 E0.102363
G1 X136.410403 Y8.216846 E0.120117
G1 X133.254046 Y8.779766 E0.106637
G1 X129.969772 Y8.903007 E0.109312
G1 X129.307755 Y8.993182 E0.022222
G1 X128.857517 Y9.14085 E0.01576
G0 F3000 X129.700752 Y14.63535
G1 F1000 X128.911395 Y14.659401 E0.026266
G1 X128.039164 Y14.578344 E0.029136
G1 X121.752999 Y13.343328 E0.213076
G1 X117.110556 Y12.796911 E0.155474
G1 X115.672591 Y12.446676 E0.049225
G1 X112.849544 Y11.480159 E0.099245
G1 X111.329254 Y11.055947 E0.052497
G1 X110.004182 Y10.820697 E0.044761
G1 X107.118029 Y10.523157 E0.096503
G1 X106.023607 Y10.265883 E0.037393
G1 X103.122678 Y9.373212 E0.10095
G1 X102.069653 Y9.202313 E0.035482
G1 X100.94136 Y9.16914 E0.037543
G1 X100.156591 Y9.2799 E0.02636
G1 X99.603142 Y9.506787 E0.019895
G1 X99.138139 Y9.86147 E0.019452
G1 X98.730973 Y10.436381 E0.023431
G1 X98.462307 Y11.144767 E0.025199
G1 X97.850919 Y13.403784 E0.077838
G1 X97.159198 Y15.286288 E0.066705
G1 X97.075676 Y15.844666 E0.018778
G1 X97.148552 Y16.23375 E0.013166
G0 F3000 X101.892169 Y27.2727
G1 F1000 X101.366851 Y27.889595 E0.026949
G1 X100.266139 Y28.495436 E0.041789
G1 X93.554936 Y30.944379 E0.237612
G1 X90.933325 Y31.973827 E0.093677
G1 X89.563603 Y32.59487 E0.050021
G1 X88.642307 Y33.156027 E0.035879
G1 X86.135286 Y35.020838 E0.103922
G1 X83.773215 Y36.630431 E0.095069
G1 X81.373867 Y38.478743 E0.100736
G1 X80.583913 Y38.831605 E0.028776
G1 X79.420023 Y39.01095 E0.039168
G1 X66.429881 Y38.806647 E0.432107
G1 X64.389425 Y38.705899 E0.067949
G1 X62.416578 Y38.421974 E0.066293
G1 X56.133009 Y37.087536 E0.213653
G1 X47.212884 Y35.428368 E0.301773
G1 X45.34128 Y35.275383 E0.062457
G1 X44.723104 Y35.373041 E0.020816
G1 X44.089387 Y35.6643 E0.023197
G0 F3000 X55.193368 Y26.4735
G1 F1000 X54.578573 Y26.662273 E0.02139
G1 X53.690649 Y26.659234 E0.029533
G1 X52.732707 Y26.511359 E0.032239
G1 X49.151151 Y25.681734 E0.122277
G1 X47.969583 Y25.501075 E0.039756
G1 X43.74383 Y25.376332 E0.14061
G1 X39.927559 Y24.917243 E0.127845
G1 X34.734034 Y24.540894 E0.17319
G1 X30.05371 Y23.95473 E0.156884
G1 X22.535952 Y22.606136 E0.254033
G1 X19.406475 Y21.735933 E0.108036
G1 X15.475257 Y20.316302 E0.139017
G1 X12.079702 Y19.2288 E0.118587
G1 X10.748115 Y18.695975 E0.047703
G1 X5.635997 Y16.346376 E0.187129
G1 X4.598994 Y15.621339 E0.042085
G1 X3.080562 Y14.297195 E0.067009
G1 X2.647133 Y14.035459 E0.016841
G1 X2.23888 Y13.906522 E0.01424
G0 F3000 X6.189042 Y18.981
G1 F1000 X6.687307 Y18.977057 E0.016573
G1 X7.285399 Y19.177856 E0.020984
G1 X9.343818 Y20.383492 E0.079342
G1 X10.415769 Y20.897056 E0.039534
G1 X13.752539 Y21.853284 E0.115449
G1 X18.324204 Y23.52227 E0.16187
G1 X20.207304 Y24.032858 E0.064894
G1 X25.4366 Y25.246878 E0.178553
G1 X29.51518 Y25.921271 E0.137496
G1 X34.850358 Y26.552366 E0.178686
G1 X42.816112 Y27.31139 E0.266142
G1 X47.859667 Y27.633053 E0.16809
G1 X53.705262 Y28.555931 E0.196833
G1 X58.205435 Y28.797215 E0.149891
G1 X60.759644 Y29.248915 E0.086272
G1 X65.769623 Y30.431107 E0.171209
G1 X66.510202 Y30.545343 E0.024923
G1 X67.405863 Y30.5694 E0.029801
G0 F3000 X71.48424 Y29.517993
G1 F1000 X71.963991 Y29.646014 E0.016515
G1 X73.412041 Y30.391911 E0.054176
G1 X75.559717 Y31.219824 E0.076556
G1 X76.095315 Y31.347635 E0.018314
G1 X76.82294 Y31.3686 E0.024211
G0 F3000 X75.00248 Y28.760172
G1 F1000 X74.482944 Y28.657444 E0.017614
G1 X74.105571 Y28.477315 E0.013908
G1 X71.584612 Y26.916663 E0.098614
G1 X70.712718 Y26.189626 E0.037758
G1 X70.109218 Y25.479521 E0.030996
G1 X69.610379 Y24.736113 E0.029777
G1 X67.029808 Y20.296848 E0.170785
G1 X65.893059 Y18.553959 E0.069209
G1 X64.472939 Y16.600357 E0.080331
G1 X63.241164 Y15.186982 E0.062356
G1 X62.444848 Y14.486649 E0.035271
G1 X61.626692 Y13.992777 E0.031785
G1 X60.7696 Y13.843138 E0.028938
G0 F3000 X63.80808 Y12.655653
G1 F1000 X63.165803 Y12.463472 E0.022298
G1 X61.701178 Y11.772023 E0.053869
G1 X59.846838 Y11.252523 E0.06405
G1 X59.205612 Y10.952564 E0.023545
G1 X58.887691 Y10.65683 E0.014442
G1 X58.869275 Y10.276336 E0.01267
G1 X59.034244 Y9.92233 E0.01299
G1 X59.497898 Y9.617851 E0.018449
G1 X62.317658 Y8.800491 E0.097646
G1 X65.333521 Y7.394303 E0.110676
G1 X69.035238 Y5.903218 E0.132733
G1 X70.771694 Y5.446369 E0.05972
G1 X74.744237 Y4.68986 E0.134502
G1 X78.857087 Y3.376366 E0.143601
G1 X82.393244 Y2.632935 E0.120184
G1 X83.619525 Y2.216861 E0.04307
G1 X84.976704 Y1.591193 E0.049706
G1 X86.029993 Y1.27171 E0.036609
G1 X89.764046 Y0.740023 E0.125448
G1 X90.319873 Y0.513793 E0.019959
G1 X90.740714 Y0.04995 E0.020831
G0 F3000 X83.294533
G1 F1000 X82.99859 Y0.425211 E0.015896
G1 X82.291806 Y0.75327 E0.025917
G1 X78.38223 Y1.27984 E0.131207
G1 X77.580778 Y1.529881 E0.027924
G1 X75.802668 Y2.323382 E0.064762
G1 X74.948025 Y2.604858 E0.029928
G1 X70.910318 Y3.341723 E0.136513
G1 X69.040103 Y3.857071 E0.064522
G1 X66.556205 Y4.729702 E0.087565
G1 X59.321992 Y7.564589 E0.258426
G1 X57.824724 Y8.296079 E0.055425
G1 X54.918879 Y10.135513 E0.114385
G1 X52.077902 Y11.795564 E0.10944
G1 X50.994553 Y12.656263 E0.04602
G1 X50.697144 Y13.06021 E0.016684
G1 X50.583687 Y13.4865 E0.014672
G0 F3000 X45.483043 Y23.22675
G1 F1000 X44.93251 Y23.450589 E0.019766
G1 X44.05415 Y23.477264 E0.029228
G1 X39.781713 Y22.66544 E0.144644
G1 X38.709915 Y22.616376 E0.035685
G1 X36.311038 Y22.688503 E0.079823
G1 X35.160458 Y22.609772 E0.038358
G1 X32.97801 Y22.191826 E0.073908
G1 X30.78185 Y22.033631 E0.073234
G1 X30.050547 Y21.907384 E0.024683
G1 X29.546943 Y21.66211 E0.018631
G1 X29.366556 Y21.132632 E0.018604
G1 X29.498475 Y20.876855 E0.009572
G1 X29.86105 Y20.591063 E0.015355
G1 X31.592997 Y19.683074 E0.065041
G1 X32.37213 Y19.17728 E0.030896
G1 X34.647246 Y17.29013 E0.098314
G1 X37.670428 Y15.037776 E0.12539
G1 X40.032535 Y13.07849 E0.102073
G1 X43.835714 Y10.919603 E0.145454
G1 X45.325531 Y9.986473 E0.058469
G1 X46.165927 Y9.250067 E0.037165
G1 X46.414572 Y8.82985 E0.01624
G1 X46.480348 Y8.54145 E0.009839
G0 F3000 X36.88643 Y12.83715
G1 F1000 X36.647894 Y13.318535 E0.017869
G1 X36.219075 Y13.735468 E0.019893
G1 X34.52612 Y14.855019 E0.067507
G1 X31.690883 Y17.116304 E0.12062
G1 X28.915403 Y18.946652 E0.110579
G1 X28.309611 Y19.456864 E0.026343
G1 X27.126661 Y20.686305 E0.056746
G1 X26.218362 Y21.002674 E0.03199
G1 X24.904173 Y21.018677 E0.043713
G1 X23.468478 Y20.766821 E0.048481
G1 X19.979511 Y19.808612 E0.12034
G1 X16.484962 Y18.502076 E0.124087
G1 X12.96462 Y17.403987 E0.122651
G1 X10.553259 Y16.409135 E0.08676
G1 X7.816147 Y15.116168 E0.100683
G1 X6.532579 Y14.418628 E0.048588
G1 X2.765231 Y11.798748 E0.152623
G1 X1.768916 Y10.811038 E0.046662
G1 X0.645698 Y9.16376 E0.066313
G1 X0.154897 Y8.7912 E0.020494
G0 F3000 X0.15992 Y4.893925
G1 F1000 X0.6331 Y5.321748 E0.021217
G1 X1.313189 Y6.758783 E0.052878
G1 X1.901873 Y7.672766 E0.036159
G1 X3.543251 Y9.708005 E0.086963
G1 X4.38717 Y10.443123 E0.037225
G1 X7.875242 Y12.900126 E0.141906
G1 X8.825944 Y13.402119 E0.035758
G1 X10.953098 Y14.286139 E0.076616
G1 X13.275457 Y15.408933 E0.085796
G1 X14.494263 Y15.777975 E0.042355
G1 X17.062996 Y16.373415 E0.087702
G1 X17.83581 Y16.681681 E0.027673
G1 X19.822703 Y17.710136 E0.074413
G1 X20.376565 Y17.881871 E0.019287
G1 X21.002567 Y17.93205 E0.020888
G0 F3000 X23.232108 Y18.43155
G1 F1000 X23.652555 Y18.71197 E0.016809
G1 X24.310108 Y18.82002 E0.022164
G1 X25.039404 Y18.734703 E0.024422
G1 X25.829716 Y18.432992 E0.028136
G1 X28.066306 Y17.08286 E0.086892
G1 X31.124931 Y15.091274 E0.121395
G1 X31.806134 Y14.604767 E0.027842
G1 X32.237483 Y14.1858 E0.02
G0 F3000 X25.10744 Y8.567157
G1 F1000 X29.094661 Y7.214373 E0.14004
G1 X34.137076 Y5.642606 E0.17567
G1 X36.555144 Y5.049108 E0.082812
G1 X40.125167 Y4.316133 E0.121216
G1 X45.849227 Y2.857381 E0.196468
G1 X46.939693 Y2.448439 E0.038736
G1 X48.943036 Y1.425733 E0.074812
G1 X51.199983 Y0.682339 E0.079034
G1 X51.566905 Y0.446817 E0.014502
G1 X51.841167 Y0.04995 E0.016045
G0 F3000 X56.45176 Y0.037297
G1 F1000 X56.167528 Y0.436304 E0.016294
G1 X55.812418 Y0.674233 E0.014217
G1 X53.560627 Y1.469575 E0.079429
G1 X51.537833 Y2.585994 E0.076845
G1 X46.345967 Y4.96061 E0.189887
G1 X44.482515 Y5.477298 E0.064317
G1 X37.31894 Y6.935969 E0.243151
G1 X34.128324 Y7.737886 E0.109421
G1 X26.650015 Y10.196908 E0.261831
G1 X24.453343 Y10.609687 E0.07434
G1 X23.509747 Y10.864518 E0.032508
G1 X16.156353 Y13.613015 E0.261101
G1 X15.072728 Y13.811396 E0.03664
G1 X14.207408 Y13.769583 E0.028814
G1 X13.521755 Y13.48426 E0.024701
G1 X13.136123 Y12.974175 E0.021268
G1 X13.243045 Y12.503684 E0.016048
G1 X13.683 Y12.090683 E0.02007
G1 X14.219937 Y11.809018 E0.020167
G1 X15.577332 Y11.2887 E0.04835
G0 F3000 X11.80202 Y23.5764
G1 F1000 X12.430109 Y23.523892 E0.020963
G1 X13.177996 Y23.68084 E0.025417
G1 X16.256415 Y25.06717 E0.112292
G1 X17.846252 Y25.619973 E0.055984
G1 X21.147585 Y26.236687 E0.111702
G1 X25.545647 Y27.36114 E0.150985
G1 X27.546754 Y27.734869 E0.067708
G1 X39.733565 Y29.122673 E0.407955
G1 X48.027059 Y29.678478 E0.276461
G1 X52.880981 Y30.410632 E0.163268
G1 X58.132904 Y31.018307 E0.175845
G1 X64.774594 Y32.290643 E0.22492
G1 X66.131753 Y32.467193 E0.04552
G1 X67.611085 Y32.524024 E0.049239
G1 X70.845969 Y32.335432 E0.107775
G1 X72.345444 Y32.473004 E0.050082
G1 X76.733586 Y33.399489 E0.149168
G1 X77.936632 Y33.874062 E0.043014
G1 X78.423506 Y34.276806 E0.021016
G1 X78.539718 Y34.80653 E0.018038
G1 X78.292894 Y35.118581 E0.013233
G1 X77.713458 Y35.3646 E0.020937
G1 X76.723429 Y35.336208 E0.032942
G1 X73.831199 Y34.85654 E0.09751
G1 X72.038988 Y34.667048 E0.059941
G1 X67.047182 Y34.572393 E0.166058
G1 X64.931715 Y34.389743 E0.070622
G1 X57.624895 Y33.0751 E0.246928
G1 X47.591869 Y31.612924 E0.337225
G1 X45.697471 Y31.45783 E0.063219
G1 X41.774004 Y31.377317 E0.130523
G1 X40.057731 Y31.269604 E0.057196
G1 X36.598931 Y30.850616 E0.115881
G1 X31.751262 Y30.11757 E0.163067
G1 X26.952565 Y29.867962 E0.159821
G1 X24.81652 Y29.386865 E0.072825
G1 X20.763714 Y28.054729 E0.141892
G1 X19.999338 Y27.966824 E0.025591
G1 X19.302808 Y28.0719 E0.023429
G0 F3000 X29.415384 Y32.1678
G1 F1000 X30.150501 Y31.917505 E0.025828
G1 X31.169005 Y31.946481 E0.033889
G1 X36.613674 Y32.994813 E0.184417
G1 X40.608872 Y33.543343 E0.134127
G1 X42.194708 Y33.579962 E0.052759
G1 X45.263238 Y33.401696 E0.102232
G1 X47.382785 Y33.527223 E0.07062
G1 X56.75692 Y35.044252 E0.315841
G1 X63.309021 Y36.294453 E0.221855
G1 X65.346968 Y36.558465 E0.068349
G1 X67.19829 Y36.673192 E0.061693
G1 X71.983012 Y36.779796 E0.15918
G1 X77.165287 Y37.106159 E0.172705
G1 X78.877406 Y37.048762 E0.056977
G1 X79.849326 Y36.853767 E0.03297
G1 X80.680252 Y36.414249 E0.031265
G1 X82.413957 Y35.057261 E0.073226
G1 X85.088942 Y33.345337 E0.10563
G1 X86.004099 Y32.582783 E0.03962
G1 X87.022759 Y31.451266 E0.050638
G1 X87.492457 Y30.701248 E0.029434
G1 X88.760388 Y27.948536 E0.100801
G1 X94.548454 Y17.668747 E0.392379
G1 X95.051406 Y16.180917 E0.052236
G1 X95.774749 Y12.603102 E0.121406
G1 X96.615992 Y10.573846 E0.073063
G1 X96.671167 Y9.994244 E0.019365
G1 X96.449765 Y9.70934 E0.012001
G1 X95.945408 Y9.599746 E0.017166
G1 X94.106268 Y9.933281 E0.062168
G1 X92.27384 Y9.962849 E0.060955
G0 F3000 X93.045587 Y11.6883
G1 F1000 X93.346069 Y11.92666 E0.012757
G1 X93.525543 Y12.218029 E0.011382
G1 X93.602366 Y13.086031 E0.028983
G1 X93.082223 Y15.364499 E0.077732
G1 X92.379946 Y17.24036 E0.06662
G1 X89.51604 Y22.589771 E0.201816
G1 X85.412127 Y29.900418 E0.278845
G1 X84.616657 Y31.050038 E0.046498
G1 X83.865138 Y31.864294 E0.036854
G1 X83.285961 Y32.333094 E0.024783
G1 X82.687971 Y32.5674 E0.021361
G0 F3000 X83.027137 Y39.8601
G1 F1000 X83.23789 Y39.462108 E0.014979
G1 X83.468048 Y39.232371 E0.010816
G1 X86.929352 Y36.81711 E0.14038
G1 X89.905579 Y34.94989 E0.116858
G1 X92.191766 Y33.815199 E0.084889
G1 X100.720211 Y30.385365 E0.305737
G1 X102.066043 Y29.707087 E0.050126
G1 X105.157739 Y27.875635 E0.119518
G1 X106.840122 Y27.102177 E0.061587
G1 X115.519453 Y23.968578 E0.306914
G1 X119.39586 Y22.432561 E0.138683
G1 X120.780159 Y21.765984 E0.051102
G1 X122.256989 Y20.828406 E0.058182
G1 X122.831617 Y20.558626 E0.021114
G1 X124.100543 Y20.255506 E0.043392
G1 X125.859357 Y20.113396 E0.058689
G1 X127.023175 Y20.239759 E0.038936
G1 X127.43949 Y20.409492 E0.014953
G1 X127.696191 Y20.628586 E0.011225
G1 X127.783362 Y20.832041 E0.007362
G1 X127.702754 Y21.080059 E0.008674
G1 X127.398355 Y21.434495 E0.015539
G1 X127.032923 Y21.67107 E0.014479
G1 X123.576959 Y22.789292 E0.120813
G1 X117.872662 Y25.253622 E0.206673
G1 X110.814664 Y27.843758 E0.250058
G1 X107.288092 Y29.289966 E0.126774
G1 X100.653103 Y32.562316 E0.246061
G1 X97.852185 Y33.785324 E0.101653
G1 X93.846407 Y35.381249 E0.143417
G1 X91.195592 Y36.601128 E0.097054
G1 X86.766727 Y39.213776 E0.171026
G1 X86.51677 Y39.434973 E0.011101
G1 X86.262506 Y39.8601 E0.016476
G0 F3000 X89.827932
G1 F1000 X90.044651 Y39.49013 E0.014261
G1 X90.660367 Y39.081261 E0.024583
G1 X92.350251 Y38.410733 E0.060469
G1 X94.64266 Y37.22843 E0.085789
G1 X98.678636 Y35.691819 E0.143637
G1 X109.479674 Y30.573936 E0.397532
G1 X112.408177 Y29.390146 E0.105059
G1 X117.907196 Y27.411841 E0.194374
G1 X123.145312 Y25.201797 E0.189092
G1 X126.904157 Y23.778722 E0.13368
G1 X128.144596 Y23.217045 E0.04529
G1 X130.310319 Y21.99537 E0.082702
G1 X132.300785 Y21.218566 E0.071066
G1 X133.105282 Y20.770688 E0.030625
G1 X133.408113 Y20.366826 E0.016789
G1 X133.373398 Y20.00567 E0.012067
G1 X133.070013 Y19.648803 E0.015579
G1 X132.425668 Y19.402006 E0.022949
G1 X129.648693 Y19.020338 E0.093231
G1 X126.422567 Y18.279126 E0.110097
G1 X122.697739 Y17.996132 E0.124245
G1 X121.228116 Y17.805012 E0.049291
G1 X117.893737 Y16.847812 E0.115381
G1 X117.260083 Y16.80285 E0.021128
G1 X116.735426 Y16.93305 E0.017979
G0 F3000 X124.25784 Y33.87167
G1 F1000 X124.873338 Y33.033715 E0.034581
G1 X125.552522 Y32.647123 E0.025993
G1 X131.744892 Y30.534953 E0.217611
G1 X133.986441 Y29.636954 E0.080314
G1 X135.733129 Y28.783847 E0.064654
G1 X137.00531 Y27.932517 E0.050913
G1 X139.765169 Y25.498007 E0.122403
G1 X142.850245 Y23.214577 E0.127659
G1 X144.091617 Y22.204055 E0.053239
G1 X145.617263 Y20.732758 E0.070495
G1 X150.681668 Y14.721877 E0.261423
G1 X151.460719 Y13.566722 E0.046342
G1 X152.569423 Y11.515485 E0.077552
G1 X152.706151 Y11.049543 E0.016151
G1 X152.723172 Y10.656213 E0.013094
G1 X152.474487 Y10.242556 E0.016053
G1 X152.194242 Y10.029964 E0.011699
G1 X151.55918 Y9.779283 E0.022708
G1 X150.75098 Y9.582518 E0.027666
G1 X148.354445 Y9.280295 E0.08034
G1 X145.372792 Y9.219247 E0.099191
G1 X143.740183 Y9.306899 E0.054379
G1 X138.327078 Y10.163943 E0.182283
G1 X135.846786 Y10.286915 E0.082596
G1 X135.394693 Y10.395346 E0.015463
G1 X135.020631 Y10.5894 E0.014016
G0 F3000 X139.21718 Y12.23775
G1 F1000 X139.539166 Y12.038186 E0.012599
G1 X139.963576 Y11.922556 E0.01463
G1 X141.77893 Y11.790081 E0.060539
G1 X143.826244 Y11.381249 E0.069438
G1 X145.070858 Y11.265988 E0.041573
G1 X149.028341 Y11.372417 E0.131674
G1 X149.654449 Y11.572706 E0.021864
G1 X149.915954 Y11.894083 E0.013781
G1 X149.942099 Y12.187507 E0.009798
G1 X149.78652 Y12.595757 E0.014531
G1 X148.417623 Y14.214319 E0.070505
G1 X146.891318 Y16.285064 E0.085561
G1 X144.353875 Y19.088946 E0.125776
G1 X142.313055 Y21.049177 E0.094118
G1 X136.057177 Y25.938439 E0.26408
G1 X134.773353 Y26.785825 E0.051163
G1 X133.165393 Y27.632267 E0.060438
G1 X129.828639 Y29.037502 E0.120421
G1 X125.157832 Y30.775551 E0.165758
G1 X123.798065 Y31.449621 E0.050478
G1 X121.732433 Y32.652905 E0.07951
G1 X120.455332 Y33.202784 E0.046247
G1 X118.492068 Y33.838903 E0.068641
G1 X114.036302 Y34.993665 E0.153095
G1 X112.962201 Y35.357819 E0.037722
G1 X112.113393 Y35.842586 E0.032511
G1 X111.696499 Y36.4635 E0.024875
G0 F3000 X102.854182 Y38.41155
G1 F1000 X103.192147 Y37.851504 E0.021756
G1 X103.890666 Y37.3694 E0.028229
G1 X108.484777 Y35.70775 E0.162488
G1 X111.206304 Y34.160054 E0.104132
G1 X112.328002 Y33.611412 E0.041531
G1 X113.949195 Y33.018992 E0.057408
G1 X118.100019 Y31.718022 E0.144679
G1 X120.205324 Y30.927191 E0.0748
G1 X124.491685 Y28.969123 E0.156736
G1 X129.873719 Y26.853946 E0.192335
G1 X132.767219 Y25.510065 E0.106112
G1 X134.36439 Y24.610392 E0.06097
G1 X137.499136 Y22.392658 E0.127716
G1 X140.343196 Y20.133985 E0.120796
G1 X142.159241 Y18.453302 E0.082299
G1 X145.454124 Y15.037328 E0.157855
G1 X146.110751 Y14.19356 E0.03556
G1 X146.219424 Y13.930815 E0.009457
G1 X146.214559 Y13.643768 E0.009549
G1 X146.095421 Y13.434961 E0.007996
G1 X145.811516 Y13.274781 E0.010842
G1 X144.954154 Y13.234805 E0.028547
G1 X144.201963 Y13.447765 E0.026001
G1 X143.548614 Y13.84264 E0.025391
G1 X141.510189 Y16.302991 E0.106269
G1 X139.328949 Y18.319358 E0.098797
G1 X137.291848 Y20.030244 E0.08848
G1 X134.012968 Y22.452579 E0.135589
G1 X132.861619 Y23.142042 E0.044635
G1 X128.469638 Y25.266467 E0.16227
G1 X123.480754 Y27.25481 E0.178624
G1 X119.45454 Y28.994334 E0.145876
G1 X112.627501 Y31.407097 E0.240832
G1 X111.241461 Y31.973187 E0.049797
G1 X107.5126 Y33.755747 E0.137465
G1 X103.5472 Y35.464016 E0.143607
G1 X99.724775 Y37.617107 E0.145916
G1 X97.576385 Y38.444664 E0.076574
G1 X94.977071 Y39.130745 E0.089414
G1 X94.460618 Y39.419434 E0.019679
G1 X94.117431 Y39.8601 E0.018577